"name","latitude","longitude","grantee","grantNumber","delegateNo","centerType","programType","programDelegateName","programMainPhoneNumber","programAddress","programCity","programState","programZipCode","phone","address","city","state","zip","id"
"Algood/Cookeville Head Start","36.1940406","-85.4507041","Livingston Byrdstown Jamestown & Cookeville Dev Corp
1150 Chocolate Drive
Cookeville, TN 38501-2006
(931)528-3361
","04CH4696","000","Head Start","Head Start","Livingston Byrdstown Jamestown & Cookeville Dev Corp","","1150 Chocolate Drive ","Cookeville","TN","38501-2006","(931) 537-9057","180 W Church St","Cookeville","TN","38506-5172","41629"
"Arnold HS","35.16453","-84.8775129","Family Resource Agency, Inc.
3680 Michigan Avenue Rd NE
Cleveland, TN 37323-5721
(423)303-3536
","04CH010316","000","Head Start","Head Start","Family Resource Agency, Inc.","","3680 Michigan Avenue Rd NE ","Cleveland","TN","37323-5721","(423) 479-9339","473 8th St NW","Cleveland","TN","37311-1871","82089"
"Eagleton Elementary Head Start","35.8061426","-83.9161939","Douglas-Cherokee Economic Authority, Inc.
534 E 1st North St
Morristown, TN 37814-4716
(423)587-4501 - 129
","04CH9999","000","Head Start","Head Start","Douglas-Cherokee Economic Authority, Inc.","","534 E 1st North St ","Morristown","TN","37814-4716","(865) 983-9056","708 Sam Houston School Rd","Maryville","TN","37804-5631","56972"
"HOPEWELL HEAD START / PRE-K","35.23105049999999","-84.89022009999996","Family Resource Agency, Inc.
3680 Michigan Avenue Rd NE
Cleveland, TN 37323-5721
(423)303-3536
","04CH010316","000","Head Start","Head Start","Family Resource Agency, Inc.","","3680 Michigan Avenue Rd NE ","Cleveland","TN","37323-5721","(423) 728-0283","5350 Freewill Rd NW","Cleveland","TN","37312-1421","81998"
"Harrison Hills Center","35.7987291","-84.2996885","Mid-East Community Action Agency
315 E Race St
Kingston, TN 37763-2828
(865)376-2308 - 231
","04CH0450","000","Head Start","Head Start","Mid-East Community Action Agency","","315 E Race St ","Kingston","TN","37763-2828","(865) 988-5133","4384 Harrison Rd","Lenoir City","TN","37771-8146","38393"
"Keenburg","36.3787153","-82.2209891","Carter County Head Start
305 Academy Street
Elizabethton, TN 37643-2208
(423)547-4009
","04CH4688","002","Head Start","Head Start","Carter County Head Start","","305 Academy Street ","Elizabethton","TN","37643-2208","(423) 547-8320","139 Keenburg Rd","Elizabethton","TN","37643-5903","40767"
"Northhaven Elementarty","35.2656685","-90.0423111","Shelby County Board of Education
160 S. Hollywood St.
Memphis, TN 38112-4801
(901)416-0036
","04CH4727","000","Head Start","Head Start","Shelby County Board of Education","","160 S. Hollywood St. ","Memphis","TN","38112-4801","(901) 353-8580","5157 N Circle Rd","Memphis","TN","38127-2503","86090"
"Bondecroft Head Start","35.945609","-85.31464690000001","Livingston Byrdstown Jamestown & Cookeville Dev Corp
1150 Chocolate Drive
Cookeville, TN 38501-2006
(931)528-3361
","04CH4696","000","Head Start","Head Start","Livingston Byrdstown Jamestown & Cookeville Dev Corp","","1150 Chocolate Drive ","Cookeville","TN","38501-2006","(931) 935-8420","9020 Crossville Hwy","Sparta","TN","38583-3188","41626"
"Sherwood Elementary","35.1001232","-89.93967980000002","Shelby County Board of Education
160 S. Hollywood St.
Memphis, TN 38112-4801
(901)416-0036
","04CH4727","000","Head Start","Head Start","Shelby County Board of Education","","160 S. Hollywood St. ","Memphis","TN","38112-4801","(901) 416-4864","1156 Robin Hood Ln","Memphis","TN","38111-5539","46493"
"Powell Valley Head Start Center","36.504415","-83.79265099999998","Clinch-Powell Educational Cooperative
106 Ingle Dr
Tazewell, TN 37879-3640
(423)626-9270
","04CH010267","000","Head Start","Head Start","Clinch-Powell Educational Cooperative","","106 Ingle Dr ","Tazewell","TN","37879-3640","(423) 869-0222","245 Powell Valley School Ln","Speedwell","TN","37870-7431","80722"
"Midway Head Start","35.792556525907635","-85.6951218772461","Livingston Byrdstown Jamestown & Cookeville Dev Corp
1150 Chocolate Drive
Cookeville, TN 38501-2006
(931)528-3361
","04CH4696","000","Head Start","Head Start","Livingston Byrdstown Jamestown & Cookeville Dev Corp","","1150 Chocolate Drive ","Cookeville","TN","38501-2006","(931) 686-2098","4764 Hennessee Bridge Rd","Rock Island","TN","38581-3652","41638"
"Treadwell Elementary","35.1571352","-89.94273959999998","Shelby County Board of Education
160 S. Hollywood St.
Memphis, TN 38112-4801
(901)416-0036
","04CH4727","000","Head Start","Head Start","Shelby County Board of Education","","160 S. Hollywood St. ","Memphis","TN","38112-4801","(901) 416-6130","3538 Given Ave","Memphis","TN","38122-3334","46474"
"Bruce Elementary","35.1313518","-90.02252490000001","Shelby County Board of Education
160 S. Hollywood St.
Memphis, TN 38112-4801
(901)416-0036
","04CH4727","000","Head Start","Head Start","Shelby County Board of Education","","160 S. Hollywood St. ","Memphis","TN","38112-4801","(901) 416-4495","581 S Bellevue Blvd","Memphis","TN","38104-4528","46449"
"Trenton Pre-K Head Start","35.9787637","-88.93556610000002","Northwest Tennessee Head Start
938 C Walnut Avenue West
McKenzie, TN 38201-1970
(731)352-4743 - 6502
","04CH010416","000","Head Start","Head Start","Northwest Tennessee Head Start","","938 C Walnut Avenue West ","McKenzie","TN","38201-1970","(731) 855-0971","421 E. Second St.","Trenton","TN","38382-2801","84598"
"MTN. VIEW HEAD START","35.327234","-84.54204991534425","Family Resource Agency, Inc.
3680 Michigan Avenue Rd NE
Cleveland, TN 37323-5721
(423)303-3536
","04CH010316","000","Head Start","Head Start","Family Resource Agency, Inc.","","3680 Michigan Avenue Rd NE ","Cleveland","TN","37323-5721","(423) 263-1065","145 County Road 627","Etowah","TN","37331-5252","81996"
"Home Away From Home Child Care Center/Head Start","35.9626165","-85.04327360000002","Livingston Byrdstown Jamestown & Cookeville Dev Corp
1150 Chocolate Drive
Cookeville, TN 38501-2006
(931)528-3361
","04CH4696","000","Head Start","Head Start","Livingston Byrdstown Jamestown & Cookeville Dev Corp","","1150 Chocolate Drive ","Cookeville","TN","38501-2006","(931) 484-3238","18 Obed St","Crossville","TN","38555-4045","41628"
"Westhaven Elementary","35.0222129","-90.0492805","Shelby County Board of Education
160 S. Hollywood St.
Memphis, TN 38112-4801
(901)416-0036
","04CH4727","000","Head Start","Head Start","Shelby County Board of Education","","160 S. Hollywood St. ","Memphis","TN","38112-4801","(901) 416-8202","4585 Hodge Rd","Memphis","TN","38109-5958","86030"
"Crossville Head Start","35.9594194","-84.99693969999998","Livingston Byrdstown Jamestown & Cookeville Dev Corp
1150 Chocolate Drive
Cookeville, TN 38501-2006
(931)528-3361
","04CH4696","000","Head Start","Head Start","Livingston Byrdstown Jamestown & Cookeville Dev Corp","","1150 Chocolate Drive ","Cookeville","TN","38501-2006","(931) 484-4114","1831 E First St","Crossville","TN","38555-4649","41641"
"WCS - Southside","36.1703639","-86.30399469999998","MID-CUMBERLAND COMMUNITY ACTION
412 Vine Street
Murfreesboro, TN 37130-
(615)893-6614 - 1026
","04CH4771","000","Head Start","Head Start","MID-CUMBERLAND COMMUNITY ACTION","","412 Vine Street ","Murfreesboro","TN","37130","(615) 542-9556","1224 Murfreesboro Rd","Lebanon","TN","37090-5301","48611"
"Ottway","36.267309","-82.87040999999999","UPPER EAST TENNESSEE HUMAN DEVELOPMENT AGENCY
301 Louis St
Kingsport, TN 37660-5181
(423)230-3732
","04CH4688","000","Head Start","Head Start","UPPER EAST TENNESSEE HUMAN DEVELOPMENT AGENCY","","301 Louis St ","Kingsport","TN","37660-5181","(423) 234-0580","2705 Ottway Rd","Greeneville","TN","37745-8783","39057"
"Byrdstown Head Start","36.5780515","-85.13753939999998","Livingston Byrdstown Jamestown & Cookeville Dev Corp
1150 Chocolate Drive
Cookeville, TN 38501-2006
(931)528-3361
","04CH4696","000","Head Start","Head Start","Livingston Byrdstown Jamestown & Cookeville Dev Corp","","1150 Chocolate Drive ","Cookeville","TN","38501-2006","(931) 864-3575","1012 Beason Rd","Byrdstown","TN","38549-2005","41634"
"Orchard Knob Elementary","35.039699","-85.270927","Chattanooga YFD Head Start/EHS Program
2302 Ocoee St
Chattanooga, TN 37406-3564
(423)643-6537
","04CH010085","000","Head Start","Head Start","Chattanooga YFD Head Start/EHS Program","","2302 Ocoee St ","Chattanooga","TN","37406-3564","(423) 493-0385","2000 E 3rd St","Chattanooga","TN","37404-2609","86358"
"Marshall County Head Start","35.459853","-86.78790429999998","South Central Human Resource Agency
1437 Winchester Hwy
Fayetteville, TN 37334-2757
(931)433-7182 - 182
","04CH4650","000","Head Start","Head Start","South Central Human Resource Agency","","1437 Winchester Hwy ","Fayetteville","TN","37334-2757","(931) 359-9691","820 2nd Ave N","Lewisburg","TN","37091-2353","32649"
"Kenwood","36.5784219","-87.38476659999998","Clarksville / Montgomery County CAA
150 Lafayette Rd
Clarksville, TN 37042-4205
(931)896-1806
","04CH010248","000","Head Start","Head Start","Clarksville / Montgomery County CAA","","150 Lafayette Rd ","Clarksville","TN","37042-4205","(931) 552-4047","185 E Pine Mountain Rd","Clarksville","TN","37042-8413","80331"
"Adamsville","35.233099","-88.38912900000003","SOUTHWEST HUMAN RESOURCE AGENCY
1527 White Ave
Henderson, TN 38340-7625
(731)989-5111
","04CH4711","000","Head Start","Head Start","SOUTHWEST HUMAN RESOURCE AGENCY","","1527 White Ave ","Henderson","TN","38340-7625","(731) 632-5116","214 South Oak Street
305 Hughes","Adamsville","TN","38310-2304","43932"
"OAK GROVE HEAD START / PRE-K","35.15292549999999","-84.8364138","Family Resource Agency, Inc.
3680 Michigan Avenue Rd NE
Cleveland, TN 37323-5721
(423)303-3536
","04CH010316","000","Head Start","Head Start","Family Resource Agency, Inc.","","3680 Michigan Avenue Rd NE ","Cleveland","TN","37323-5721","(423) 614-7395","400 Durkee Rd SE","Cleveland","TN","37323-6543","81987"
"Home Away From Home-Pinewood Head Start","35.9673576","-85.04747250000003","Livingston Byrdstown Jamestown & Cookeville Dev Corp
1150 Chocolate Drive
Cookeville, TN 38501-2006
(931)528-3361
","04CH4696","000","Head Start","Head Start","Livingston Byrdstown Jamestown & Cookeville Dev Corp","","1150 Chocolate Drive ","Cookeville","TN","38501-2006","(931) 787-1012","115 Pinewood Dr","Crossville","TN","38555-4040","41645"
"Happy Valley 1 & 2","36.3155236","-82.2850502","Carter County Head Start
305 Academy Street
Elizabethton, TN 37643-2208
(423)547-4009
","04CH4688","002","Head Start","Head Start","Carter County Head Start","","305 Academy Street ","Elizabethton","TN","37643-2208","(423) 547-4058","1840 Milligan Hwy","Johnson City","TN","37601-7124","40769"
"Holmes Road Elementary","35.0054102","-90.03011750000002","Shelby County Board of Education
160 S. Hollywood St.
Memphis, TN 38112-4801
(901)416-0036
","04CH4727","000","Head Start","Head Start","Shelby County Board of Education","","160 S. Hollywood St. ","Memphis","TN","38112-4801","(901) 416-6469","1083 E Holmes Rd","Memphis","TN","38116-8245","46477"
"WCS - Watertown","36.0980186","-86.14800230000003","MID-CUMBERLAND COMMUNITY ACTION
412 Vine Street
Murfreesboro, TN 37130-
(615)893-6614 - 1026
","04CH4771","000","Head Start","Head Start","MID-CUMBERLAND COMMUNITY ACTION","","412 Vine Street ","Murfreesboro","TN","37130","(615) 542-9556","751 W Main St","Watertown","TN","37184-4358","48613"
"Jasper Head Start","35.069107","-85.63519199999996","SEQUATCHIE VALLEY PLANNING & DEVELOPMENT DISTRICT
501 Westfield Pl
Jasper, TN 37347-5144
(423)939-1005
","04CH4786","000","Head Start","Head Start","SEQUATCHIE VALLEY PLANNING & DEVELOPMENT DISTRICT","","501 Westfield Pl ","Jasper","TN","37347-5144","(423) 942-9451","3706 Main St","Jasper","TN","37347-0418","51924"
"Childcare Network 168","35.042575","-85.27777500000002","Chattanooga YFD Head Start/EHS Program
2302 Ocoee St
Chattanooga, TN 37406-3564
(423)643-6537
","04CH010085","000","Head Start","Head Start","Chattanooga YFD Head Start/EHS Program","","2302 Ocoee St ","Chattanooga","TN","37406-3564","(423) 826-1592","1510 E 3rd St","Chattanooga","TN","37404-2436","56824"
"Coalfield Pre K","36.0251176","-84.42167810000001","COMMUNITY ACTION SERVICE OF MORGAN COUNTY HEAD START
105 Longview Dr
Wartburg, TN 37887-4205
(423)346-6633
","04CH4714","000","Head Start","Head Start","COMMUNITY ACTION SERVICE OF MORGAN COUNTY HEAD START","","105 Longview Dr ","Wartburg","TN","37887-4205","(423) 346-6633","1720 Coal Hill Rd","Harriman","TN","37748-3716","43732"
"Burchfield Head Start Center","36.5034201","-84.53501319999998","Clinch-Powell Educational Cooperative
106 Ingle Dr
Tazewell, TN 37879-3640
(423)626-9270
","04CH010267","000","Head Start","Head Start","Clinch-Powell Educational Cooperative","","106 Ingle Dr ","Tazewell","TN","37879-3640","(423) 569-5022","1108 W 3rd Ave","Oneida","TN","37841-6008","80944"
"MCS - Scales","35.8186678","-86.46020049999998","MID-CUMBERLAND COMMUNITY ACTION
412 Vine Street
Murfreesboro, TN 37130-
(615)893-6614 - 1026
","04CH4771","000","Head Start","Head Start","MID-CUMBERLAND COMMUNITY ACTION","","412 Vine Street ","Murfreesboro","TN","37130","(615) 542-9565","2340 Saint Andrews Dr","Murfreesboro","TN","37128-5882","49511"
"East View","36.1672271","-82.81178339999997","UPPER EAST TENNESSEE HUMAN DEVELOPMENT AGENCY
301 Louis St
Kingsport, TN 37660-5181
(423)230-3732
","04CH4688","000","Head Start","Head Start","UPPER EAST TENNESSEE HUMAN DEVELOPMENT AGENCY","","301 Louis St ","Kingsport","TN","37660-5181","(423) 638-6351","454 E Bernard Ave","Greeneville","TN","37745-5001","39061"
"Community Action Services of Morgan Cty","36.1066983","-84.57816809999997","COMMUNITY ACTION SERVICE OF MORGAN COUNTY HEAD START
105 Longview Dr
Wartburg, TN 37887-4205
(423)346-6633
","04CH4714","000","Head Start","Head Start","COMMUNITY ACTION SERVICE OF MORGAN COUNTY HEAD START","","105 Longview Dr ","Wartburg","TN","37887-4205","(423) 346-6633","105 Longview Dr
P.O. Box 179","Wartburg","TN","37887-4205","43726"
"Belle Forest Elementary","35.0631481","-89.8569172","Shelby County Board of Education
160 S. Hollywood St.
Memphis, TN 38112-4801
(901)416-0036
","04CH4727","000","Head Start","Head Start","Shelby County Board of Education","","160 S. Hollywood St. ","Memphis","TN","38112-4801","(901) 416-7200","3135 Ridgeway Rd","Memphis","TN","38115-2734","46447"
"MEIGS NORTH HEAD START","35.569515","-84.75715300000002","Family Resource Agency, Inc.
3680 Michigan Avenue Rd NE
Cleveland, TN 37323-5721
(423)303-3536
","04CH010316","000","Head Start","Head Start","Family Resource Agency, Inc.","","3680 Michigan Avenue Rd NE ","Cleveland","TN","37323-5721","(423) 344-4931","22015 State Highway 58 N","Decatur","TN","37322-3242","81997"
"Franklin Head Start","35.91255917509467","-86.88070249867246","MID-CUMBERLAND COMMUNITY ACTION
412 Vine Street
Murfreesboro, TN 37130-
(615)893-6614 - 1026
","04CH4771","000","Head Start","Head Start","MID-CUMBERLAND COMMUNITY ACTION","","412 Vine Street ","Murfreesboro","TN","37130","(615) 794-0166","1406 Cannon St
Franklin Special City School District Annex","Franklin","TN","37064-3542","48594"
"Lauderdale Co. Head Start","35.74369","-89.52164379999999","Northwest Tennessee Head Start
938 C Walnut Avenue West
McKenzie, TN 38201-1970
(731)352-4743 - 6502
","04CH010416","000","Head Start","Head Start","Northwest Tennessee Head Start","","938 C Walnut Avenue West ","McKenzie","TN","38201-1970","(731) 635-8234","142 Nelson St","Ripley","TN","38063-1822","84607"
"Wartburg Central Pre K","36.10315629999999","-84.57784800000002","COMMUNITY ACTION SERVICE OF MORGAN COUNTY HEAD START
105 Longview Dr
Wartburg, TN 37887-4205
(423)346-6633
","04CH4714","000","Head Start","Head Start","COMMUNITY ACTION SERVICE OF MORGAN COUNTY HEAD START","","105 Longview Dr ","Wartburg","TN","37887-4205","(423) 346-6633","1315 Knoxville Hwy","Wartburg","TN","37887-4115","43735"
"Keystone Elementary","35.241826","-89.95129709999998","Shelby County Board of Education
160 S. Hollywood St.
Memphis, TN 38112-4801
(901)416-0036
","04CH4727","000","Head Start","Head Start","Shelby County Board of Education","","160 S. Hollywood St. ","Memphis","TN","38112-4801","(901) 416-3924","4301 Old Allen Rd","Memphis","TN","38128-1729","46480"
"Lafayette Head Start","36.49675240022576","-85.9883772209015","Livingston Byrdstown Jamestown & Cookeville Dev Corp
1150 Chocolate Drive
Cookeville, TN 38501-2006
(931)528-3361
","04CH4696","000","Head Start","Head Start","Livingston Byrdstown Jamestown & Cookeville Dev Corp","","1150 Chocolate Drive ","Cookeville","TN","38501-2006","(615) 666-4392","2703 Highway 52 E","Lafayette","TN","37083-6029","41631"
"Bolivar","35.231888","-88.96555899999998","SOUTHWEST HUMAN RESOURCE AGENCY
1527 White Ave
Henderson, TN 38340-7625
(731)989-5111
","04CH4711","000","Head Start","Head Start","SOUTHWEST HUMAN RESOURCE AGENCY","","1527 White Ave ","Henderson","TN","38340-7625","(731) 658-4920","17545 Highway 125 S
Campbell Chapel Church","Bolivar","TN","38008-3729","43941"
"Rolling Acres Home-based","35.9155319","-84.56546679999997","Mid-East Community Action Agency
315 E Race St
Kingston, TN 37763-2828
(865)376-2308 - 231
","04CH0450","000","Head Start","Head Start","Mid-East Community Action Agency","","315 E Race St ","Kingston","TN","37763-2828","(865) 882-0808","220 Crestview Ave","Harriman","TN","37748-7020","38403"
"Sneedville","36.5255213","-83.21555109999997","UPPER EAST TENNESSEE HUMAN DEVELOPMENT AGENCY
301 Louis St
Kingsport, TN 37660-5181
(423)230-3732
","04CH4688","000","Head Start","Head Start","UPPER EAST TENNESSEE HUMAN DEVELOPMENT AGENCY","","301 Louis St ","Kingsport","TN","37660-5181","(423) 733-8132","216 Harrison St","Sneedville","TN","37869-3821","39064"
"Troy Head Start Center","36.3393781","-89.16593720000003","Northwest Tennessee Head Start
938 C Walnut Avenue West
McKenzie, TN 38201-1970
(731)352-4743 - 6502
","04CH010416","000","Head Start","Head Start","Northwest Tennessee Head Start","","938 C Walnut Avenue West ","McKenzie","TN","38201-1970","(731) 536-4918","409 S Maple St
P. O. Box 608","Troy","TN","38260-5674","84597"
"Daisy","35.2327839","-85.16844200000003","Chattanooga YFD Head Start/EHS Program
2302 Ocoee St
Chattanooga, TN 37406-3564
(423)643-6537
","04CH010085","000","Head Start","Head Start","Chattanooga YFD Head Start/EHS Program","","2302 Ocoee St ","Chattanooga","TN","37406-3564","(423) 643-6460","9531 W Ridge Trail Rd","Soddy Daisy","TN","37379-4018","56814"
"Cross Creek","36.233751","-83.820515","Douglas-Cherokee Economic Authority, Inc.
534 E 1st North St
Morristown, TN 37814-4716
(423)587-4501 - 129
","04CH9999","000","Head Start","Head Start","Douglas-Cherokee Economic Authority, Inc.","","534 E 1st North St ","Morristown","TN","37814-4716","(865) 992-7104","177 Durham Dr","Maynardville","TN","37807-2925","56967"
"Porter Leath Frayser Head Start","35.214942","-89.97394600000001","Shelby County Board of Education
160 S. Hollywood St.
Memphis, TN 38112-4801
(901)416-0036
","04CH4727","000","Head Start","Head Start","Shelby County Board of Education","","160 S. Hollywood St. ","Memphis","TN","38112-4801","(901) 353-0407","3274 Range Line Rd","Memphis","TN","38127-6837","46442"
"Springdale Head Start Center","36.369453","-83.44041700000002","Clinch-Powell Educational Cooperative
106 Ingle Dr
Tazewell, TN 37879-3640
(423)626-9270
","04CH010267","000","Head Start","Head Start","Clinch-Powell Educational Cooperative","","106 Ingle Dr ","Tazewell","TN","37879-3640","(423) 626-5152","1917 Highway 25 South","Tazewell","TN","37879","80725"
"Clairfield Head Start Center","36.5703824","-83.9244038","Clinch-Powell Educational Cooperative
106 Ingle Dr
Tazewell, TN 37879-3640
(423)626-9270
","04CH010267","000","Head Start","Head Start","Clinch-Powell Educational Cooperative","","106 Ingle Dr ","Tazewell","TN","37879-3640","(423) 784-7700","6366 Highway 90","Clairfield","TN","37715-3621","80757"
"Lucie E Campbell Elementary","35.213805","-89.96845200000001","Shelby County Board of Education
160 S. Hollywood St.
Memphis, TN 38112-4801
(901)416-0036
","04CH4727","000","Head Start","Head Start","Shelby County Board of Education","","160 S. Hollywood St. ","Memphis","TN","38112-4801","(901) 416-1000","3232 Birchfield Dr","Memphis","TN","38127-6923","46487"
"Magic Valley Head Start","36.04303840000001","-88.1185539","Northwest Tennessee Head Start
938 C Walnut Avenue West
McKenzie, TN 38201-1970
(731)352-4743 - 6502
","04CH010416","000","Head Start","Head Start","Northwest Tennessee Head Start","","938 C Walnut Avenue West ","McKenzie","TN","38201-1970","(731) 584-2009","245 Overhead Bridge Rd","Camden","TN","38320-1862","84603"
"Grand Junction","35.0482372","-89.18475260000002","SOUTHWEST HUMAN RESOURCE AGENCY
1527 White Ave
Henderson, TN 38340-7625
(731)989-5111
","04CH4711","000","Head Start","Head Start","SOUTHWEST HUMAN RESOURCE AGENCY","","1527 White Ave ","Henderson","TN","38340-7625","(731) 764-3083","190 Madison Ave E","Grand Junction","TN","38039-4444","43944"
"Selmer","35.155773","-88.5950421","SOUTHWEST HUMAN RESOURCE AGENCY
1527 White Ave
Henderson, TN 38340-7625
(731)989-5111
","04CH4711","000","Head Start","Head Start","SOUTHWEST HUMAN RESOURCE AGENCY","","1527 White Ave ","Henderson","TN","38340-7625","(731) 645-8953","705 Industrial Park Dr","Selmer","TN","38375-3285","43931"
"Hampton 1","36.28567690000001","-82.16460899999998","Carter County Head Start
305 Academy Street
Elizabethton, TN 37643-2208
(423)547-4009
","04CH4688","002","Head Start","Head Start","Carter County Head Start","","305 Academy Street ","Elizabethton","TN","37643-2208","(423) 725-5225","408 Highway 321","Hampton","TN","37658-3322","40766"
"Tracy City Head Start","35.2432318","-85.69268399999999","SEQUATCHIE VALLEY PLANNING & DEVELOPMENT DISTRICT
501 Westfield Pl
Jasper, TN 37347-5144
(423)939-1005
","04CH4786","000","Head Start","Head Start","SEQUATCHIE VALLEY PLANNING & DEVELOPMENT DISTRICT","","501 Westfield Pl ","Jasper","TN","37347-5144","(931) 592-2311","13764 US Highway 41","Tracy City","TN","37387-5028","51920"
"SMMS Head Start Center","36.4520825","-83.5822359","Clinch-Powell Educational Cooperative
106 Ingle Dr
Tazewell, TN 37879-3640
(423)626-9270
","04CH010267","000","Head Start","Head Start","Clinch-Powell Educational Cooperative","","106 Ingle Dr ","Tazewell","TN","37879-3640","(423) 626-1622","450 Brown St","Tazewell","TN","37879-4024","80724"
"Hickman County Head Start","35.81277100000001","-87.43499199999997","South Central Human Resource Agency
1437 Winchester Hwy
Fayetteville, TN 37334-2757
(931)433-7182 - 182
","04CH4650","000","Head Start","Head Start","South Central Human Resource Agency","","1437 Winchester Hwy ","Fayetteville","TN","37334-2757","(931) 729-1737","200 Bulldog Blvd","Centerville","TN","37033-1010","32656"
"NORTH HAMBLEN HEAD START","36.237191","-83.292258","Douglas-Cherokee Economic Authority, Inc.
534 E 1st North St
Morristown, TN 37814-4716
(423)587-4501 - 129
","04CH9999","000","Head Start","Head Start","Douglas-Cherokee Economic Authority, Inc.","","534 E 1st North St ","Morristown","TN","37814-4716","(423) 586-6493","2125 Fairview Rd","Morristown","TN","37814-3093","56936"
"NEW PROSPECT","35.964222","-83.19271800000001","Douglas-Cherokee Economic Authority, Inc.
534 E 1st North St
Morristown, TN 37814-4716
(423)587-4501 - 129
","04CH9999","000","Head Start","Head Start","Douglas-Cherokee Economic Authority, Inc.","","534 E 1st North St ","Morristown","TN","37814-4716","(423) 623-8119","242 Prospect Ave","Newport","TN","37821-3548","56947"
"Dayton Head Start","35.4691","-85.01297299999999","SEQUATCHIE VALLEY PLANNING & DEVELOPMENT DISTRICT
501 Westfield Pl
Jasper, TN 37347-5144
(423)939-1005
","04CH4786","000","Head Start","Head Start","SEQUATCHIE VALLEY PLANNING & DEVELOPMENT DISTRICT","","501 Westfield Pl ","Jasper","TN","37347-5144","(423) 775-7723","1655 Blythe Ferry Rd","Dayton","TN","37321-5640","51917"
"Bethel Grove Elementary","35.0990632","-89.9810692","Shelby County Board of Education
160 S. Hollywood St.
Memphis, TN 38112-4801
(901)416-0036
","04CH4727","000","Head Start","Head Start","Shelby County Board of Education","","160 S. Hollywood St. ","Memphis","TN","38112-4801","(901) 416-5012","2459 Arlington Ave","Memphis","TN","38114-4221","86023"
"Greeneville Technology Center (GTC)","36.155858","-82.8815745","UPPER EAST TENNESSEE HUMAN DEVELOPMENT AGENCY
301 Louis St
Kingsport, TN 37660-5181
(423)230-3732
","04CH4688","000","Head Start","Head Start","UPPER EAST TENNESSEE HUMAN DEVELOPMENT AGENCY","","301 Louis St ","Kingsport","TN","37660-5181","(423) 639-0171","1121 Hal Henard Rd","Greeneville","TN","37743-7543","39049"
"Douglass Elementary","35.1774639","-89.95318209999999","Shelby County Board of Education
160 S. Hollywood St.
Memphis, TN 38112-4801
(901)416-0036
","04CH4727","000","Head Start","Head Start","Shelby County Board of Education","","160 S. Hollywood St. ","Memphis","TN","38112-4801","(901) 416-5946","1650 Ash St","Memphis","TN","38108-1929","58860"
"Montgomery Central","36.3976564","-87.38542039999999","Clarksville / Montgomery County CAA
150 Lafayette Rd
Clarksville, TN 37042-4205
(931)896-1806
","04CH010248","000","Head Start","Head Start","Clarksville / Montgomery County CAA","","150 Lafayette Rd ","Clarksville","TN","37042-4205","(931) 387-4496","4011 Highway 48","Cunningham","TN","37052-5020","80332"
"SWEETWATER","35.5956318","-84.50198639999996","Douglas-Cherokee Economic Authority, Inc.
534 E 1st North St
Morristown, TN 37814-4716
(423)587-4501 - 129
","04CH9999","000","Head Start","Head Start","Douglas-Cherokee Economic Authority, Inc.","","534 E 1st North St ","Morristown","TN","37814-4716","(423) 337-5303","29 Valley View Village Dr","Sweetwater","TN","37874-1931","56942"
"Fayette Co. Head Start","35.0815637","-89.39014609999998","Northwest Tennessee Head Start
938 C Walnut Avenue West
McKenzie, TN 38201-1970
(731)352-4743 - 6502
","04CH010416","000","Head Start","Head Start","Northwest Tennessee Head Start","","938 C Walnut Avenue West ","McKenzie","TN","38201-1970","(901) 877-6372","100 Thompson Dr","Moscow","TN","38057-6732","84592"
"Sea Isle Elementary","35.0946302","-89.88898990000001","Shelby County Board of Education
160 S. Hollywood St.
Memphis, TN 38112-4801
(901)416-0036
","04CH4727","000","Head Start","Head Start","Shelby County Board of Education","","160 S. Hollywood St. ","Memphis","TN","38112-4801","(901) 416-2104","5250 Sea Isle Rd","Memphis","TN","38117-6833","46500"
"Shelbyville Head Start","35.4942597","-86.46365029999998","South Central Human Resource Agency
1437 Winchester Hwy
Fayetteville, TN 37334-2757
(931)433-7182 - 182
","04CH4650","000","Head Start","Head Start","South Central Human Resource Agency","","1437 Winchester Hwy ","Fayetteville","TN","37334-2757","(931) 684-8529","515 Rock St","Shelbyville","TN","37160-2728","32652"
"Lucy Elementary","35.297434","-89.92575899999997","Shelby County Board of Education
160 S. Hollywood St.
Memphis, TN 38112-4801
(901)416-0036
","04CH4727","000","Head Start","Head Start","Shelby County Board of Education","","160 S. Hollywood St. ","Memphis","TN","38112-4801","(901) 873-8116","6269 Amherst Rd","Millington","TN","38053-8007","46489"
"Lawrence County Head Start/Early  Head Start","35.2371195","-87.32993599999998","South Central Human Resource Agency
1437 Winchester Hwy
Fayetteville, TN 37334-2757
(931)433-7182 - 182
","04CH4650","000","Head Start","Head Start","South Central Human Resource Agency","","1437 Winchester Hwy ","Fayetteville","TN","37334-2757","(931) 762-6039","405 E Taylor St","Lawrenceburg","TN","38464-3839","32677"
"Red Boiling Springs Head Start","36.5197915","-85.86034749999999","Livingston Byrdstown Jamestown & Cookeville Dev Corp
1150 Chocolate Drive
Cookeville, TN 38501-2006
(931)528-3361
","04CH4696","000","Head Start","Head Start","Livingston Byrdstown Jamestown & Cookeville Dev Corp","","1150 Chocolate Drive ","Cookeville","TN","38501-2006","(615) 699-2225","521 Lafayette Rd","Red Boiling Springs","TN","37150-2026","41636"
"Fairview Head Start","36.1550239","-84.02758549999999","Anderson County Schools' Preschool
708 N Main St
Clinton, TN 37716-3143
(865)463-2833
","04CH9994","000","Head Start","Head Start","Anderson County Schools' Preschool","","708 N Main St ","Clinton","TN","37716-3143","(865) 494-3229","6715 Hickory Valley Rd","Heiskell","TN","37754-3021","56872"
"West Pines","36.3408621","-82.71744180000002","UPPER EAST TENNESSEE HUMAN DEVELOPMENT AGENCY
301 Louis St
Kingsport, TN 37660-5181
(423)230-3732
","04CH4688","000","Head Start","Head Start","UPPER EAST TENNESSEE HUMAN DEVELOPMENT AGENCY","","301 Louis St ","Kingsport","TN","37660-5181","(423) 234-6881","3500 W Pines Rd","Greeneville","TN","37745-2948","39063"
"Chambliss Center for Children","35.028504","-85.24288000000001","Chattanooga YFD Head Start/EHS Program
2302 Ocoee St
Chattanooga, TN 37406-3564
(423)643-6537
","04CH010085","000","Head Start","Head Start","Chattanooga YFD Head Start/EHS Program","","2302 Ocoee St ","Chattanooga","TN","37406-3564","(423) 698-2456","315 Gillespie Rd","Chattanooga","TN","37411-3105","56820"
"RIDGEWOOD","35.8042978","-83.55133710000001","Douglas-Cherokee Economic Authority, Inc.
534 E 1st North St
Morristown, TN 37814-4716
(423)587-4501 - 129
","04CH9999","000","Head Start","Head Start","Douglas-Cherokee Economic Authority, Inc.","","534 E 1st North St ","Morristown","TN","37814-4716","(865) 908-6280","944 Jamesena Miller Dr","Pigeon Forge","TN","37863-3070","56948"
"Westmoreland Head Start","36.5676348","-86.24640529999999","MID-CUMBERLAND COMMUNITY ACTION
412 Vine Street
Murfreesboro, TN 37130-
(615)893-6614 - 1026
","04CH4771","000","Head Start","Head Start","MID-CUMBERLAND COMMUNITY ACTION","","412 Vine Street ","Murfreesboro","TN","37130","(615) 644-4637","4178 Hawkins Dr
Westmoreland Elementary","Westmoreland","TN","37186-2008","48608"
"LaGrange Moscow PreK Head Start","35.0582055","-89.37160210000002","Northwest Tennessee Head Start
938 C Walnut Avenue West
McKenzie, TN 38201-1970
(731)352-4743 - 6502
","04CH010416","000","Head Start","Head Start","Northwest Tennessee Head Start","","938 C Walnut Avenue West ","McKenzie","TN","38201-1970","(901) 877-6854","15655 Highway 57","Moscow","TN","38057-6851","84616"
"Dandridge","36.03829899999999","-83.44768099999999","Douglas-Cherokee Economic Authority, Inc.
534 E 1st North St
Morristown, TN 37814-4716
(423)587-4501 - 129
","04CH9999","000","Head Start","Head Start","Douglas-Cherokee Economic Authority, Inc.","","534 E 1st North St ","Morristown","TN","37814-4716","(865) 397-6390","546 Patriot Dr","Dandridge","TN","37725-3216","56964"
"Northridge Head Start","35.6482215","-87.00769830000002","South Central Human Resource Agency
1437 Winchester Hwy
Fayetteville, TN 37334-2757
(931)433-7182 - 182
","04CH4650","000","Head Start","Head Start","South Central Human Resource Agency","","1437 Winchester Hwy ","Fayetteville","TN","37334-2757","(931) 840-4735","1224 McBride Cir","Columbia","TN","38401-5508","32650"
"Lafayette Center","36.5567172","-87.39865950000001","Clarksville / Montgomery County CAA
150 Lafayette Rd
Clarksville, TN 37042-4205
(931)896-1806
","04CH010248","000","Head Start","Head Start","Clarksville / Montgomery County CAA","","150 Lafayette Rd ","Clarksville","TN","37042-4205","(931) 802-6338","150 Lafayette Rd","Clarksville","TN","37042-0601","80438"
"Richland Head Start","36.1494391","-86.86336419999998","Metropolitan Action Commission
800 2nd Ave N
Nashville, TN 37201-1083
(615)862-8860 - 70146
","04CH010156","000","Head Start","Head Start","Metropolitan Action Commission","","800 2nd Ave N ","Nashville","TN","37201-1083","(615) 862-8935","5900 Charlotte Pike","Nashville","TN","37209-3104","56846"
"Cloudland","36.205634","-82.09280100000001","Carter County Head Start
305 Academy Street
Elizabethton, TN 37643-2208
(423)547-4009
","04CH4688","002","Head Start","Head Start","Carter County Head Start","","305 Academy Street ","Elizabethton","TN","37643-2208","(423) 772-5313","8540 Highway 19 E","Roan Mountain","TN","37687-3317","40771"
"MCS - Northfield","35.87510109999999","-86.3927976","MID-CUMBERLAND COMMUNITY ACTION
412 Vine Street
Murfreesboro, TN 37130-
(615)893-6614 - 1026
","04CH4771","000","Head Start","Head Start","MID-CUMBERLAND COMMUNITY ACTION","","412 Vine Street ","Murfreesboro","TN","37130","(615) 542-9565","550 W Northfield Blvd","Murfreesboro","TN","37129-1531","49496"
"Vision Prep","35.0951155","-90.0717545","Shelby County Board of Education
160 S. Hollywood St.
Memphis, TN 38112-4801
(901)416-0036
","04CH4727","000","Head Start","Head Start","Shelby County Board of Education","","160 S. Hollywood St. ","Memphis","TN","38112-4801","(901) 775-1018","260 Joubert Ave","Memphis","TN","38109-1828","58857"
"Porter Head Start","35.805594","-83.869574","Douglas-Cherokee Economic Authority, Inc.
534 E 1st North St
Morristown, TN 37814-4716
(423)587-4501 - 129
","04CH9999","000","Head Start","Head Start","Douglas-Cherokee Economic Authority, Inc.","","534 E 1st North St ","Morristown","TN","37814-4716","(865) 982-6140","4520 Wildwood Springs Rd","Maryville","TN","37804-4529","56973"
"Bransford Head Start","36.4992242","-86.8957025","MID-CUMBERLAND COMMUNITY ACTION
412 Vine Street
Murfreesboro, TN 37130-
(615)893-6614 - 1026
","04CH4771","000","Head Start","Head Start","MID-CUMBERLAND COMMUNITY ACTION","","412 Vine Street ","Murfreesboro","TN","37130","(615) 384-9863","700 Bransford Dr","Springfield","TN","37172-7221","48599"
"Crump Elementary","35.02858","-89.86095599999999","Shelby County Board of Education
160 S. Hollywood St.
Memphis, TN 38112-4801
(901)416-0036
","04CH4727","000","Head Start","Head Start","Shelby County Board of Education","","160 S. Hollywood St. ","Memphis","TN","38112-4801","(901) 416-1970","4405 Crump Rd","Memphis","TN","38141-6910","46454"
"Lake City I Head Start","36.2201094","-84.1520697","Anderson County Schools' Preschool
708 N Main St
Clinton, TN 37716-3143
(865)463-2833
","04CH9994","000","Head Start","Head Start","Anderson County Schools' Preschool","","708 N Main St ","Clinton","TN","37716-3143","(865) 426-4890","402 Lindsay Ave","Rocky Top","TN","37769-2238","56870"
"FAIRVIEW","35.7187294","-84.00485200000003","Douglas-Cherokee Economic Authority, Inc.
534 E 1st North St
Morristown, TN 37814-4716
(423)587-4501 - 129
","04CH9999","000","Head Start","Head Start","Douglas-Cherokee Economic Authority, Inc.","","534 E 1st North St ","Morristown","TN","37814-4716","(865) 980-1685","2130 Old Niles Ferry Rd","Maryville","TN","37803-8860","56956"
"Carnes Elementary","35.1507859","-90.02837199999999","Shelby County Board of Education
160 S. Hollywood St.
Memphis, TN 38112-4801
(901)416-0036
","04CH4727","000","Head Start","Head Start","Shelby County Board of Education","","160 S. Hollywood St. ","Memphis","TN","38112-4801","(901) 416-3206","943 Jw Williams Ln","Memphis","TN","38105-3108","46451"
"MADISONVILLE","35.5204386","-84.36372999999998","Douglas-Cherokee Economic Authority, Inc.
534 E 1st North St
Morristown, TN 37814-4716
(423)587-4501 - 129
","04CH9999","000","Head Start","Head Start","Douglas-Cherokee Economic Authority, Inc.","","534 E 1st North St ","Morristown","TN","37814-4716","(423) 442-3722","102 Main St","Madisonville","TN","37354-1439","56955"
"Cherokee Elementary","35.093922","-89.96002799999997","Shelby County Board of Education
160 S. Hollywood St.
Memphis, TN 38112-4801
(901)416-0036
","04CH4727","000","Head Start","Head Start","Shelby County Board of Education","","160 S. Hollywood St. ","Memphis","TN","38112-4801","(901) 416-5028","3061 Kimball Ave","Memphis","TN","38114-4011","46452"
"Shiloh Head Start","36.246383","-85.59398399999998","Livingston Byrdstown Jamestown & Cookeville Dev Corp
1150 Chocolate Drive
Cookeville, TN 38501-2006
(931)528-3361
","04CH4696","000","Head Start","Head Start","Livingston Byrdstown Jamestown & Cookeville Dev Corp","","1150 Chocolate Drive ","Cookeville","TN","38501-2006","(931) 268-2759","824 P Brewington Rd","Cookeville","TN","38501-8962","41632"
"Surgoinsville Head Start","36.486145","-82.83758399999999","UPPER EAST TENNESSEE HUMAN DEVELOPMENT AGENCY
301 Louis St
Kingsport, TN 37660-5181
(423)230-3732
","04CH4688","000","Head Start","Head Start","UPPER EAST TENNESSEE HUMAN DEVELOPMENT AGENCY","","301 Louis St ","Kingsport","TN","37660-5181","(423) 345-3527","3327 Highway 11W","Surgoinsville","TN","37873-6104","39076"
"Briceville Head Start","36.1780273","-84.18377880000003","Anderson County Schools' Preschool
708 N Main St
Clinton, TN 37716-3143
(865)463-2833
","04CH9994","000","Head Start","Head Start","Anderson County Schools' Preschool","","708 N Main St ","Clinton","TN","37716-3143","(865) 426-2289","103 Slatestone Rd","Briceville","TN","37710-2018","56864"
"Hemlock Head Start","35.0015841","-85.70665309999998","SEQUATCHIE VALLEY PLANNING & DEVELOPMENT DISTRICT
501 Westfield Pl
Jasper, TN 37347-5144
(423)939-1005
","04CH4786","000","Head Start","Head Start","SEQUATCHIE VALLEY PLANNING & DEVELOPMENT DISTRICT","","501 Westfield Pl ","Jasper","TN","37347-5144","(423) 837-1101","907 Hemlock Ln","South Pittsburg","TN","37380-1571","51915"
"Kiwanis East II Head Start Center","36.008739","-83.89065800000003","KNOXVILLE KNOX COUNTY COMMUNITY ACTION COMMISSION
2400 Piedmont St
Knoxville, TN 37921-7048
(865)522-2193
","04CH4692","000","Head Start","Head Start","KNOXVILLE KNOX COUNTY COMMUNITY ACTION COMMISSION","","2400 Piedmont St ","Knoxville","TN","37921-7048","(865) 637-2639","2330 Prosser Rd","Knoxville","TN","37914-3323","39036"
"Ridgeway ELC","35.053966","-89.858071","Shelby County Board of Education
160 S. Hollywood St.
Memphis, TN 38112-4801
(901)416-0036
","04CH4727","000","Head Start","Head Start","Shelby County Board of Education","","160 S. Hollywood St. ","Memphis","TN","38112-4801","(901) 416-1530","3435 Ridge Meadow Pkwy","Memphis","TN","38115-4030","46508"
"Pre K Sunbright","36.25987569999999","-84.67744949999997","COMMUNITY ACTION SERVICE OF MORGAN COUNTY HEAD START
105 Longview Dr
Wartburg, TN 37887-4205
(423)346-6633
","04CH4714","000","Head Start","Head Start","COMMUNITY ACTION SERVICE OF MORGAN COUNTY HEAD START","","105 Longview Dr ","Wartburg","TN","37887-4205","(423) 346-6633","205 Burrville Rd","Sunbright","TN","37872-2303","43728"
"Dutch Valley Elementary Pre-K/Head Start","36.1266595","-84.20159619999998","Anderson County Schools' Preschool
708 N Main St
Clinton, TN 37716-3143
(865)463-2833
","04CH9994","000","Head Start","Head Start","Anderson County Schools' Preschool","","708 N Main St ","Clinton","TN","37716-3143","(865) 457-2599","1044 Old Dutch Valley Rd","Clinton","TN","37716-5509","56871"
"YFD Child Care Program - YF Dev/CCP 1300","35.044303","-85.31519700000001","Chattanooga YFD Head Start/EHS Program
2302 Ocoee St
Chattanooga, TN 37406-3564
(423)643-6537
","04CH010085","000","Head Start","Head Start","Chattanooga YFD Head Start/EHS Program","","2302 Ocoee St ","Chattanooga","TN","37406-3564","(423) 643-6400","501 W 12th St","Chattanooga","TN","37402-3852","56818"
"Weakley Co. Head Start","36.288831","-88.70716800000002","Northwest Tennessee Head Start
938 C Walnut Avenue West
McKenzie, TN 38201-1970
(731)352-4743 - 6502
","04CH010416","000","Head Start","Head Start","Northwest Tennessee Head Start","","938 C Walnut Avenue West ","McKenzie","TN","38201-1970","(731) 364-3913","231 S Wilson St","Dresden","TN","38225-1329","84595"
"Tullahoma Head Start","35.3684645","-86.22143590000002","South Central Human Resource Agency
1437 Winchester Hwy
Fayetteville, TN 37334-2757
(931)433-7182 - 182
","04CH4650","000","Head Start","Head Start","South Central Human Resource Agency","","1437 Winchester Hwy ","Fayetteville","TN","37334-2757","(931) 461-3081","215 Big Springs Ave","Tullahoma","TN","37388-3390","32680"
"MCEWEN HEAD START","36.1133566","-87.63191139999998","Highland Rim Economic Corporation
3215 Highway 149
Erin, TN 37061-5407
(931)289-4135
","04CH4663","000","Head Start","Head Start","Highland Rim Economic Corporation","","3215 Highway 149 ","Erin","TN","37061-5407","(931) 582-3278","220 Swift St E","Mc Ewen","TN","37101-4550","32857"
"DICKSON COMPLEX","36.0734014","-87.3923977","Highland Rim Economic Corporation
3215 Highway 149
Erin, TN 37061-5407
(931)289-4135
","04CH4663","000","Head Start","Head Start","Highland Rim Economic Corporation","","3215 Highway 149 ","Erin","TN","37061-5407","(615) 446-2576","119 W Broad St","Dickson","TN","37055-1909","32861"
"Stewart Pre-K","36.5533731","-87.74332950000002","Highland Rim Economic Corporation
3215 Highway 149
Erin, TN 37061-5407
(931)289-4135
","04CH4663","000","Head Start","Head Start","Highland Rim Economic Corporation","","3215 Highway 149 ","Erin","TN","37061-5407","(931) 232-5505","2201 Highway 79","Big Rock","TN","37023-3070","32864"
"TOWNSEND","35.6744224","-83.7549285","Douglas-Cherokee Economic Authority, Inc.
534 E 1st North St
Morristown, TN 37814-4716
(423)587-4501 - 129
","04CH9999","000","Head Start","Head Start","Douglas-Cherokee Economic Authority, Inc.","","534 E 1st North St ","Morristown","TN","37814-4716","(865) 448-9195","140 Tiger Dr","Townsend","TN","37882-4100","56945"
"East Brainard Elementary","35.0280047","-85.1496281","Chattanooga YFD Head Start/EHS Program
2302 Ocoee St
Chattanooga, TN 37406-3564
(423)643-6537
","04CH010085","000","Head Start","Head Start","Chattanooga YFD Head Start/EHS Program","","2302 Ocoee St ","Chattanooga","TN","37406-3564","(423) 855-2600","7660 Goodwin Rd","Chattanooga","TN","37421-4759","86357"
"Childcare Network 34","35.075226","-85.196483","Chattanooga YFD Head Start/EHS Program
2302 Ocoee St
Chattanooga, TN 37406-3564
(423)643-6537
","04CH010085","000","Head Start","Head Start","Chattanooga YFD Head Start/EHS Program","","2302 Ocoee St ","Chattanooga","TN","37406-3564","(423) 899-2821","4650 Redlands Dr","Chattanooga","TN","37416-3420","56822"
"Murfreesboro Head Start","35.843857","-86.38639","MID-CUMBERLAND COMMUNITY ACTION
412 Vine Street
Murfreesboro, TN 37130-
(615)893-6614 - 1026
","04CH4771","000","Head Start","Head Start","MID-CUMBERLAND COMMUNITY ACTION","","412 Vine Street ","Murfreesboro","TN","37130","(615) 896-5870","219 S Maney Ave","Murfreesboro","TN","37130-4240","48597"
"MCS - Oakland Court","35.856303064825475","-86.39163795560302","MID-CUMBERLAND COMMUNITY ACTION
412 Vine Street
Murfreesboro, TN 37130-
(615)893-6614 - 1026
","04CH4771","000","Head Start","Head Start","MID-CUMBERLAND COMMUNITY ACTION","","412 Vine Street ","Murfreesboro","TN","37130","(615) 542-9565","318 E Lokey Ave","Murfreesboro","TN","37130-2588","48615"
"Jackson Elementary","35.184183","-89.92958290000001","Shelby County Board of Education
160 S. Hollywood St.
Memphis, TN 38112-4801
(901)416-0036
","04CH4727","000","Head Start","Head Start","Shelby County Board of Education","","160 S. Hollywood St. ","Memphis","TN","38112-4801","(901) 416-4222","3925 Wales Ave","Memphis","TN","38108-2177","46479"
"Lowrance Elementary","35.0363908","-89.80564859999998","Shelby County Board of Education
160 S. Hollywood St.
Memphis, TN 38112-4801
(901)416-0036
","04CH4727","000","Head Start","Head Start","Shelby County Board of Education","","160 S. Hollywood St. ","Memphis","TN","38112-4801","(901) 759-3000","7740 Lowrance Rd","Memphis","TN","38125-2828","46485"
"Evans Elementary","35.0686355","-89.89825810000002","Shelby County Board of Education
160 S. Hollywood St.
Memphis, TN 38112-4801
(901)416-0036
","04CH4727","000","Head Start","Head Start","Shelby County Board of Education","","160 S. Hollywood St. ","Memphis","TN","38112-4801","(901) 416-2504","4949 Cottonwood Rd","Memphis","TN","38118-2606","46462"
"Delano","35.263701","-84.55765500000001","Family Resource Agency, Inc.
3680 Michigan Avenue Rd NE
Cleveland, TN 37323-5721
(423)303-3536
","04CH010316","000","Head Start","Head Start","Family Resource Agency, Inc.","","3680 Michigan Avenue Rd NE ","Cleveland","TN","37323-5721","(423) 781-7635","119 Carolina Ave","Delano","TN","37325-7001","82081"
"Grand Oaks Head Start","36.0484121","-84.24577729999999","Anderson County Schools' Preschool
708 N Main St
Clinton, TN 37716-3143
(865)463-2833
","04CH9994","000","Head Start","Head Start","Anderson County Schools' Preschool","","708 N Main St ","Clinton","TN","37716-3143","(865) 463-9809","1033 Oliver Springs Hwy","Clinton","TN","37716-5365","56866"
"WEARWOOD","35.725377","-83.645465","Douglas-Cherokee Economic Authority, Inc.
534 E 1st North St
Morristown, TN 37814-4716
(423)587-4501 - 129
","04CH9999","000","Head Start","Head Start","Douglas-Cherokee Economic Authority, Inc.","","534 E 1st North St ","Morristown","TN","37814-4716","(865) 429-5039","3150 Wearwood Dr","Sevierville","TN","37862-8332","56954"
"Maury Pre-K","35.6141897","-87.04185740000003","South Central Human Resource Agency
1437 Winchester Hwy
Fayetteville, TN 37334-2757
(931)433-7182 - 182
","04CH4650","000","Head Start","Head Start","South Central Human Resource Agency","","1437 Winchester Hwy ","Fayetteville","TN","37334-2757","(931) 388-8403","501 W 8th St","Columbia","TN","38401-3182","32674"
"Moore County Head Start","35.2837242","-86.3788164","South Central Human Resource Agency
1437 Winchester Hwy
Fayetteville, TN 37334-2757
(931)433-7182 - 182
","04CH4650","000","Head Start","Head Start","South Central Human Resource Agency","","1437 Winchester Hwy ","Fayetteville","TN","37334-2757","(931) 759-4239","75 High St","Lynchburg","TN","37352-6807","32653"
"MCS - Franklin Heights","35.8413518","-86.40752680000003","MID-CUMBERLAND COMMUNITY ACTION
412 Vine Street
Murfreesboro, TN 37130-
(615)893-6614 - 1026
","04CH4771","000","Head Start","Head Start","MID-CUMBERLAND COMMUNITY ACTION","","412 Vine Street ","Murfreesboro","TN","37130","(615) 542-9565","307 January St","Murfreesboro","TN","37129-3378","48614"
"Bower Head Start/Pre K","35.1396487","-84.87694620000002","Family Resource Agency, Inc.
3680 Michigan Avenue Rd NE
Cleveland, TN 37323-5721
(423)303-3536
","04CH010316","000","Head Start","Head Start","Family Resource Agency, Inc.","","3680 Michigan Avenue Rd NE ","Cleveland","TN","37323-5721","(423) 476-2317","640 20th St SE","Cleveland","TN","37311-7701","82068"
"Smithville Head Start","35.93977470000001","-85.81903979999998","Livingston Byrdstown Jamestown & Cookeville Dev Corp
1150 Chocolate Drive
Cookeville, TN 38501-2006
(931)528-3361
","04CH4696","000","Head Start","Head Start","Livingston Byrdstown Jamestown & Cookeville Dev Corp","","1150 Chocolate Drive ","Cookeville","TN","38501-2006","(615) 597-5168","118 Kimberly Ln","Smithville","TN","37166-3025","41637"
"Cosby Head Start","35.846641","-83.21616499999999","Douglas-Cherokee Economic Authority, Inc.
534 E 1st North St
Morristown, TN 37814-4716
(423)587-4501 - 129
","04CH9999","000","Head Start","Head Start","Douglas-Cherokee Economic Authority, Inc.","","534 E 1st North St ","Morristown","TN","37814-4716","(423) 487-4348","110 Tree Rd","Cosby","TN","37722-3024","56960"
"WATERVILLE HEAD START / PRE-K","35.100501","-84.873718","Family Resource Agency, Inc.
3680 Michigan Avenue Rd NE
Cleveland, TN 37323-5721
(423)303-3536
","04CH010316","000","Head Start","Head Start","Family Resource Agency, Inc.","","3680 Michigan Avenue Rd NE ","Cleveland","TN","37323-5721","(423) 473-7579","4081 Dalton Pike SE","Cleveland","TN","37323-9304","81995"
"BLYTHE AVENUE HEAD START/EARLY HEAD START CTR.","35.1492774","-84.87470710000002","Family Resource Agency, Inc.
3680 Michigan Avenue Rd NE
Cleveland, TN 37323-5721
(423)303-3536
","04CH010316","000","Head Start","Head Start","Family Resource Agency, Inc.","","3680 Michigan Avenue Rd NE ","Cleveland","TN","37323-5721","(423) 473-9890","1075 Blythe Ave SE","Cleveland","TN","37311-2948","82033"
"Fairmont Center","35.91298","-84.57707700000003","Mid-East Community Action Agency
315 E Race St
Kingston, TN 37763-2828
(865)376-2308 - 231
","04CH0450","000","Head Start","Head Start","Mid-East Community Action Agency","","315 E Race St ","Kingston","TN","37763-2828","(865) 882-8737","130 Fairmont Ave","Harriman","TN","37748-7224","38402"
"Washington Douglass Head Start - Bldg 2","35.604558","-88.797931","Northwest Tennessee Head Start
938 C Walnut Avenue West
McKenzie, TN 38201-1970
(731)352-4743 - 6502
","04CH010416","000","Head Start","Head Start","Northwest Tennessee Head Start","","938 C Walnut Avenue West ","McKenzie","TN","38201-1970","(731) 424-4842","409 Iselin St","Jackson","TN","38301-7250","84604"
"Bluff City","36.472859","-82.26176300000003","UPPER EAST TENNESSEE HUMAN DEVELOPMENT AGENCY
301 Louis St
Kingsport, TN 37660-5181
(423)230-3732
","04CH4688","000","Head Start","Head Start","UPPER EAST TENNESSEE HUMAN DEVELOPMENT AGENCY","","301 Louis St ","Kingsport","TN","37660-5181","(423) 538-5580","284 J Forrest Thomas St","Bluff City","TN","37618-2815","39052"
"Wartrace Head Start","35.5279613","-86.33818459999998","South Central Human Resource Agency
1437 Winchester Hwy
Fayetteville, TN 37334-2757
(931)433-7182 - 182
","04CH4650","000","Head Start","Head Start","South Central Human Resource Agency","","1437 Winchester Hwy ","Fayetteville","TN","37334-2757","(931) 389-6406","112 Bridgeview Street","Wartrace","TN","37183","32668"
"Hardeman County","35.2869227","-89.02292620000003","SOUTHWEST HUMAN RESOURCE AGENCY
1527 White Ave
Henderson, TN 38340-7625
(731)989-5111
","04CH4711","000","Head Start","Head Start","SOUTHWEST HUMAN RESOURCE AGENCY","","1527 White Ave ","Henderson","TN","38340-7625","(731) 658-1803","525 Moss Ln","Bolivar","TN","38008-1022","43937"
"Pikeville Head Start","35.5973633","-85.19159430000002","SEQUATCHIE VALLEY PLANNING & DEVELOPMENT DISTRICT
501 Westfield Pl
Jasper, TN 37347-5144
(423)939-1005
","04CH4786","000","Head Start","Head Start","SEQUATCHIE VALLEY PLANNING & DEVELOPMENT DISTRICT","","501 Westfield Pl ","Jasper","TN","37347-5144","(423) 447-2459","2531 Main St","Pikeville","TN","37367-5512","51914"
"Valley Forge 2","36.3081243","-82.19405619999998","Carter County Head Start
305 Academy Street
Elizabethton, TN 37643-2208
(423)547-4009
","04CH4688","002","Head Start","Head Start","Carter County Head Start","","305 Academy Street ","Elizabethton","TN","37643-2208","(423) 547-8319","1485 Riverview Dr","Elizabethton","TN","37643-5369","40768"
"McDonald","36.16482300000001","-83.12503300000003","UPPER EAST TENNESSEE HUMAN DEVELOPMENT AGENCY
301 Louis St
Kingsport, TN 37660-5181
(423)230-3732
","04CH4688","000","Head Start","Head Start","UPPER EAST TENNESSEE HUMAN DEVELOPMENT AGENCY","","301 Louis St ","Kingsport","TN","37660-5181","(423) 235-9077","8120 McDonald Rd","Mohawk","TN","37810-4900","39071"
"SEYMOUR HEAD START","35.835256","-83.73577","Douglas-Cherokee Economic Authority, Inc.
534 E 1st North St
Morristown, TN 37814-4716
(423)587-4501 - 129
","04CH9999","000","Head Start","Head Start","Douglas-Cherokee Economic Authority, Inc.","","534 E 1st North St ","Morristown","TN","37814-4716","(865) 573-4897","813 Wye Dr","Seymour","TN","37865-6531","56969"
"Chuckey","36.215447","-82.69699700000001","UPPER EAST TENNESSEE HUMAN DEVELOPMENT AGENCY
301 Louis St
Kingsport, TN 37660-5181
(423)230-3732
","04CH4688","000","Head Start","Head Start","UPPER EAST TENNESSEE HUMAN DEVELOPMENT AGENCY","","301 Louis St ","Kingsport","TN","37660-5181","(423) 257-3406","1605 Chuckey Hwy","Chuckey","TN","37641-5447","39055"
"Lewis County Head Start","35.5454007","-87.5554138","South Central Human Resource Agency
1437 Winchester Hwy
Fayetteville, TN 37334-2757
(931)433-7182 - 182
","04CH4650","000","Head Start","Head Start","South Central Human Resource Agency","","1437 Winchester Hwy ","Fayetteville","TN","37334-2757","(931) 796-4898","207 S Oak St","Hohenwald","TN","38462-1743","32660"
"Perry County Head Start","35.5930601","-87.86278870000001","South Central Human Resource Agency
1437 Winchester Hwy
Fayetteville, TN 37334-2757
(931)433-7182 - 182
","04CH4650","000","Head Start","Head Start","South Central Human Resource Agency","","1437 Winchester Hwy ","Fayetteville","TN","37334-2757","(931) 589-6368","2469 Squirrel Hollow Dr","Linden","TN","37096-3518","32666"
"LT Ross Head Start Center","35.9697272","-83.95310589999997","KNOXVILLE KNOX COUNTY COMMUNITY ACTION COMMISSION
2400 Piedmont St
Knoxville, TN 37921-7048
(865)522-2193
","04CH4692","000","Head Start","Head Start","KNOXVILLE KNOX COUNTY COMMUNITY ACTION COMMISSION","","2400 Piedmont St ","Knoxville","TN","37921-7048","(865) 637-6244","2247 Western Ave","Knoxville","TN","37921-5756","39037"
"Monterey Head Start","36.142886","-85.26318600000002","Livingston Byrdstown Jamestown & Cookeville Dev Corp
1150 Chocolate Drive
Cookeville, TN 38501-2006
(931)528-3361
","04CH4696","000","Head Start","Head Start","Livingston Byrdstown Jamestown & Cookeville Dev Corp","","1150 Chocolate Drive ","Cookeville","TN","38501-2006","(931) 839-3323","705 E Commercial Ave","Monterey","TN","38574-1220","41630"
"Decatur County","35.571262","-88.12743390000003","SOUTHWEST HUMAN RESOURCE AGENCY
1527 White Ave
Henderson, TN 38340-7625
(731)989-5111
","04CH4711","000","Head Start","Head Start","SOUTHWEST HUMAN RESOURCE AGENCY","","1527 White Ave ","Henderson","TN","38340-7625","(731) 852-4257","1020 S West St","Decaturville","TN","38329-4020","43940"
"Hawkins Mill Elementary","35.24296","-89.9828971","Shelby County Board of Education
160 S. Hollywood St.
Memphis, TN 38112-4801
(901)416-0036
","04CH4727","000","Head Start","Head Start","Shelby County Board of Education","","160 S. Hollywood St. ","Memphis","TN","38112-4801","(901) 416-3944","4295 Mountain Terrace St","Memphis","TN","38127-3530","46503"
"Signal Center","35.026419","-85.24636090000001","Chattanooga YFD Head Start/EHS Program
2302 Ocoee St
Chattanooga, TN 37406-3564
(423)643-6537
","04CH010085","000","Head Start","Head Start","Chattanooga YFD Head Start/EHS Program","","2302 Ocoee St ","Chattanooga","TN","37406-3564","(423) 698-8528","109 N Germantown Rd","Chattanooga","TN","37411-2756","56825"
"Knight Road Elementary","35.0601709","-89.91220899999996","Shelby County Board of Education
160 S. Hollywood St.
Memphis, TN 38112-4801
(901)416-0036
","04CH4727","000","Head Start","Head Start","Shelby County Board of Education","","160 S. Hollywood St. ","Memphis","TN","38112-4801","(901) 416-2514","3237 Knight Rd","Memphis","TN","38118-4204","46483"
"Victoria Head Start","35.2051246","-87.02405190000002","South Central Human Resource Agency
1437 Winchester Hwy
Fayetteville, TN 37334-2757
(931)433-7182 - 182
","04CH4650","000","Head Start","Head Start","South Central Human Resource Agency","","1437 Winchester Hwy ","Fayetteville","TN","37334-2757","(931) 363-5535","121 Victoria Pl","Pulaski","TN","38478-2524","32665"
"Manchester Head Start","35.4657999","-86.0945883","South Central Human Resource Agency
1437 Winchester Hwy
Fayetteville, TN 37334-2757
(931)433-7182 - 182
","04CH4650","000","Head Start","Head Start","South Central Human Resource Agency","","1437 Winchester Hwy ","Fayetteville","TN","37334-2757","(931) 728-7756","1200 Oakdale St","Manchester","TN","37355-2287","32679"
"Taylor Head Start/Pre K","35.1207369","-84.78446350000002","Family Resource Agency, Inc.
3680 Michigan Avenue Rd NE
Cleveland, TN 37323-5721
(423)303-3536
","04CH010316","000","Head Start","Head Start","Family Resource Agency, Inc.","","3680 Michigan Avenue Rd NE ","Cleveland","TN","37323-5721","(423) 478-8817","5265 Bates Pike SE","Cleveland","TN","37323-8030","82075"
"Carver","36.318038","-82.364396","UPPER EAST TENNESSEE HUMAN DEVELOPMENT AGENCY
301 Louis St
Kingsport, TN 37660-5181
(423)230-3732
","04CH4688","000","Head Start","Head Start","UPPER EAST TENNESSEE HUMAN DEVELOPMENT AGENCY","","301 Louis St ","Kingsport","TN","37660-5181","(423) 929-9883","500 Washington St","Johnson City","TN","37604-5514","39050"
"Grandview Head Start","36.260762","-82.56615599999998","UPPER EAST TENNESSEE HUMAN DEVELOPMENT AGENCY
301 Louis St
Kingsport, TN 37660-5181
(423)230-3732
","04CH4688","000","Head Start","Head Start","UPPER EAST TENNESSEE HUMAN DEVELOPMENT AGENCY","","301 Louis St ","Kingsport","TN","37660-5181","","2891 Highway 11 E","Telford","TN","37690-2431","46406"
"MENTOR","35.822553","-84.01136500000001","Douglas-Cherokee Economic Authority, Inc.
534 E 1st North St
Morristown, TN 37814-4716
(423)587-4501 - 129
","04CH9999","000","Head Start","Head Start","Douglas-Cherokee Economic Authority, Inc.","","534 E 1st North St ","Morristown","TN","37814-4716","(865) 981-6855","2424 Mentor School Rd","Louisville","TN","37777-4021","56939"
"Columbia Head Start","35.593461","-87.03593899999998","South Central Human Resource Agency
1437 Winchester Hwy
Fayetteville, TN 37334-2757
(931)433-7182 - 182
","04CH4650","000","Head Start","Head Start","South Central Human Resource Agency","","1437 Winchester Hwy ","Fayetteville","TN","37334-2757","(931) 381-8762","209 Wayne St","Columbia","TN","38401-4526","32658"
"College Hill","35.595866","-89.27280389999999","SOUTHWEST HUMAN RESOURCE AGENCY
1527 White Ave
Henderson, TN 38340-7625
(731)989-5111
","04CH4711","000","Head Start","Head Start","SOUTHWEST HUMAN RESOURCE AGENCY","","1527 White Ave ","Henderson","TN","38340-7625","(731) 772-5557","127 N Grand Ave
Ste 2","Brownsville","TN","38012-2487","43929"
"MCS - John Pittard","35.886384","-86.35545","MID-CUMBERLAND COMMUNITY ACTION
412 Vine Street
Murfreesboro, TN 37130-
(615)893-6614 - 1026
","04CH4771","000","Head Start","Head Start","MID-CUMBERLAND COMMUNITY ACTION","","412 Vine Street ","Murfreesboro","TN","37130","(615) 542-9565","745 Dejarnette Ln","Murfreesboro","TN","37130-9160","82131"
"Montgomery","35.6509493","-88.40042119999998","SOUTHWEST HUMAN RESOURCE AGENCY
1527 White Ave
Henderson, TN 38340-7625
(731)989-5111
","04CH4711","000","Head Start","Head Start","SOUTHWEST HUMAN RESOURCE AGENCY","","1527 White Ave ","Henderson","TN","38340-7625","(731) 968-4613","125 Montgomery Way
Ste 1","Lexington","TN","38351-2072","43938"
"Goodlett Elementary","35.06737800000001","-89.92236600000001","Shelby County Board of Education
160 S. Hollywood St.
Memphis, TN 38112-4801
(901)416-0036
","04CH4727","000","Head Start","Head Start","Shelby County Board of Education","","160 S. Hollywood St. ","Memphis","TN","38112-4801","(901) 416-2510","3001 S Goodlett St","Memphis","TN","38118-2930","46470"
"Susan Gray Head Start","36.06804","-86.72270300000002","Metropolitan Action Commission
800 2nd Ave N
Nashville, TN 37201-1083
(615)862-8860 - 70146
","04CH010156","000","Head Start","Head Start","Metropolitan Action Commission","","800 2nd Ave N ","Nashville","TN","37201-1083","(615) 862-8888","445 Cotton Ln","Nashville","TN","37211-5203","56850"
"WCS - Gladeville","36.11117400536534","-86.41993001852416","MID-CUMBERLAND COMMUNITY ACTION
412 Vine Street
Murfreesboro, TN 37130-
(615)893-6614 - 1026
","04CH4771","000","Head Start","Head Start","MID-CUMBERLAND COMMUNITY ACTION","","412 Vine Street ","Murfreesboro","TN","37130","(615) 542-9556","8840 Stewarts Ferry Pike","Gladeville","TN","37071","48610"
"Shalom Zone Head Start","36.397014","-86.45881789999999","MID-CUMBERLAND COMMUNITY ACTION
412 Vine Street
Murfreesboro, TN 37130-
(615)893-6614 - 1026
","04CH4771","000","Head Start","Head Start","MID-CUMBERLAND COMMUNITY ACTION","","412 Vine Street ","Murfreesboro","TN","37130","(615) 451-9804","600 Small St","Gallatin","TN","37066-2254","48603"
"Pinecrest","36.294343","-81.996017","UPPER EAST TENNESSEE HUMAN DEVELOPMENT AGENCY
301 Louis St
Kingsport, TN 37660-5181
(423)230-3732
","04CH4688","000","Head Start","Head Start","UPPER EAST TENNESSEE HUMAN DEVELOPMENT AGENCY","","301 Louis St ","Kingsport","TN","37660-5181","(423) 929-1781","500 Angel Pl","Johnson City","TN","37601-6457","39069"
"Fairview Head Start Center","36.3794187","-84.4037801","Clinch-Powell Educational Cooperative
106 Ingle Dr
Tazewell, TN 37879-3640
(423)626-9270
","04CH010267","000","Head Start","Head Start","Clinch-Powell Educational Cooperative","","106 Ingle Dr ","Tazewell","TN","37879-3640","(423) 663-9301","8706 Baker Hwy","Huntsville","TN","37756-3036","80760"
"Meigs South","35.4257515","-84.87244290000001","Family Resource Agency, Inc.
3680 Michigan Avenue Rd NE
Cleveland, TN 37323-5721
(423)303-3536
","04CH010316","000","Head Start","Head Start","Family Resource Agency, Inc.","","3680 Michigan Avenue Rd NE ","Cleveland","TN","37323-5721","(423) 454-0148","9485 State Highway 58","Decatur","TN","37322-7300","82084"
"St. William Head Start","35.3449359","-89.89884689999997","Shelby County Board of Education
160 S. Hollywood St.
Memphis, TN 38112-4801
(901)416-0036
","04CH4727","000","Head Start","Head Start","Shelby County Board of Education","","160 S. Hollywood St. ","Memphis","TN","38112-4801","(901) 922-0851","4932 Easley St","Millington","TN","38053-2010","46445"
"Dobbins","36.536425","-82.55289299999998","UPPER EAST TENNESSEE HUMAN DEVELOPMENT AGENCY
301 Louis St
Kingsport, TN 37660-5181
(423)230-3732
","04CH4688","000","Head Start","Head Start","UPPER EAST TENNESSEE HUMAN DEVELOPMENT AGENCY","","301 Louis St ","Kingsport","TN","37660-5181","(423) 246-6180","301 Louis St","Kingsport","TN","37660-5181","39056"
"Harmony","36.3920047","-82.57230820000001","UPPER EAST TENNESSEE HUMAN DEVELOPMENT AGENCY
301 Louis St
Kingsport, TN 37660-5181
(423)230-3732
","04CH4688","000","Head Start","Head Start","UPPER EAST TENNESSEE HUMAN DEVELOPMENT AGENCY","","301 Louis St ","Kingsport","TN","37660-5181","(423) 348-5113","1019 Painter Rd","Jonesborough","TN","37659-3319","39053"
"Alcy Elementary","35.0790843","-90.00436030000003","Shelby County Board of Education
160 S. Hollywood St.
Memphis, TN 38112-4801
(901)416-0036
","04CH4727","000","Head Start","Head Start","Shelby County Board of Education","","160 S. Hollywood St. ","Memphis","TN","38112-4801","(901) 416-7800","1750 E Alcy Rd","Memphis","TN","38114-5809","58826"
"Egypt Elementary","35.2384963","-89.93007119999999","Shelby County Board of Education
160 S. Hollywood St.
Memphis, TN 38112-4801
(901)416-0036
","04CH4727","000","Head Start","Head Start","Shelby County Board of Education","","160 S. Hollywood St. ","Memphis","TN","38112-4801","(901) 416-4150","4160 Karen Cv","Memphis","TN","38128-2210","58834"
"Jamestown Head Start","36.4148921","-84.9357149","Livingston Byrdstown Jamestown & Cookeville Dev Corp
1150 Chocolate Drive
Cookeville, TN 38501-2006
(931)528-3361
","04CH4696","000","Head Start","Head Start","Livingston Byrdstown Jamestown & Cookeville Dev Corp","","1150 Chocolate Drive ","Cookeville","TN","38501-2006","(931) 879-7973","629 N Main St","Jamestown","TN","38556-3739","41633"
"Petros Joyner Pre K","36.0484477","-84.44940259999998","COMMUNITY ACTION SERVICE OF MORGAN COUNTY HEAD START
105 Longview Dr
Wartburg, TN 37887-4205
(423)346-6633
","04CH4714","000","Head Start","Head Start","COMMUNITY ACTION SERVICE OF MORGAN COUNTY HEAD START","","105 Longview Dr ","Wartburg","TN","37887-4205","(423) 346-6633","125 Petros Joyner School Rd","Oliver Springs","TN","37840-3716","43733"
"MCS - Mercury Court","35.8378176","-86.38084730000003","MID-CUMBERLAND COMMUNITY ACTION
412 Vine Street
Murfreesboro, TN 37130-
(615)893-6614 - 1026
","04CH4771","000","Head Start","Head Start","MID-CUMBERLAND COMMUNITY ACTION","","412 Vine Street ","Murfreesboro","TN","37130","(615) 542-9565","602 S Hancock St","Murfreesboro","TN","37130-4327","48616"
"Chester County","35.46023562500286","-88.66913384285277","SOUTHWEST HUMAN RESOURCE AGENCY
1527 White Ave
Henderson, TN 38340-7625
(731)989-5111
","04CH4711","000","Head Start","Head Start","SOUTHWEST HUMAN RESOURCE AGENCY","","1527 White Ave ","Henderson","TN","38340-7625","(731) 989-5192","1495 White Ave","Henderson","TN","38340-7625","43945"
"Smith County Head Start","36.2522766","-85.95165400000002","Livingston Byrdstown Jamestown & Cookeville Dev Corp
1150 Chocolate Drive
Cookeville, TN 38501-2006
(931)528-3361
","04CH4696","000","Head Start","Head Start","Livingston Byrdstown Jamestown & Cookeville Dev Corp","","1150 Chocolate Drive ","Cookeville","TN","38501-2006","(615) 735-1868","201 Joy Alford Way","Carthage","TN","37030-3047","41627"
"East Ridge Elementray","34.996129","-85.24983499999996","Chattanooga YFD Head Start/EHS Program
2302 Ocoee St
Chattanooga, TN 37406-3564
(423)643-6537
","04CH010085","000","Head Start","Head Start","Chattanooga YFD Head Start/EHS Program","","2302 Ocoee St ","Chattanooga","TN","37406-3564","(423) 493-6209","1014 John Ross Rd","Chattanooga","TN","37412-1620","56817"
"Lincoln Homes","36.54069339999999","-87.35263199999997","Clarksville / Montgomery County CAA
150 Lafayette Rd
Clarksville, TN 37042-4205
(931)896-1806
","04CH010248","000","Head Start","Head Start","Clarksville / Montgomery County CAA","","150 Lafayette Rd ","Clarksville","TN","37042-4205","(931) 648-5796","20K Summer St","Clarksville","TN","37040-4926","80330"
"Fugate Hill","36.3992992","-83.01386400000001","UPPER EAST TENNESSEE HUMAN DEVELOPMENT AGENCY
301 Louis St
Kingsport, TN 37660-5181
(423)230-3732
","04CH4688","000","Head Start","Head Start","UPPER EAST TENNESSEE HUMAN DEVELOPMENT AGENCY","","301 Louis St ","Kingsport","TN","37660-5181","(423) 272-6325","901 Locust St","Rogersville","TN","37857-2409","39054"
"Boyds Creek","35.920672","-83.66777990000003","Douglas-Cherokee Economic Authority, Inc.
534 E 1st North St
Morristown, TN 37814-4716
(423)587-4501 - 129
","04CH9999","000","Head Start","Head Start","Douglas-Cherokee Economic Authority, Inc.","","534 E 1st North St ","Morristown","TN","37814-4716","(865) 908-0627","2536 Boyds Creek Hwy","Sevierville","TN","37876-0240","56965"
"MOUNTAIN VIEW","36.2219488","-83.30281739999998","Douglas-Cherokee Economic Authority, Inc.
534 E 1st North St
Morristown, TN 37814-4716
(423)587-4501 - 129
","04CH9999","000","Head Start","Head Start","Douglas-Cherokee Economic Authority, Inc.","","534 E 1st North St ","Morristown","TN","37814-4716","(423) 581-9710","324 W 13th North St","Morristown","TN","37814-6581","56952"
"HARRISBURG","35.8624255","-83.48334299999999","Douglas-Cherokee Economic Authority, Inc.
534 E 1st North St
Morristown, TN 37814-4716
(423)587-4501 - 129
","04CH9999","000","Head Start","Head Start","Douglas-Cherokee Economic Authority, Inc.","","534 E 1st North St ","Morristown","TN","37814-4716","(865) 429-5602","1814 Old Harrisburg Rd","Sevierville","TN","37876-2138","56941"
"Portland Head Start","36.5647798","-86.4822252","MID-CUMBERLAND COMMUNITY ACTION
412 Vine Street
Murfreesboro, TN 37130-
(615)893-6614 - 1026
","04CH4771","000","Head Start","Head Start","MID-CUMBERLAND COMMUNITY ACTION","","412 Vine Street ","Murfreesboro","TN","37130","(615) 542-9597","211 Fountain Head Rd
Clyde Riggs Elementary School","Portland","TN","37148-3619","48607"
"Southwest","35.141024","-89.4868985","Northwest Tennessee Head Start
938 C Walnut Avenue West
McKenzie, TN 38201-1970
(731)352-4743 - 6502
","04CH010416","000","Head Start","Head Start","Northwest Tennessee Head Start","","938 C Walnut Avenue West ","McKenzie","TN","38201-1970","(901) 465-8317","8095 Highwy 194","Macon","TN","38048","84617"
"Sharpe Elementary","35.0864986","-89.9483945","Shelby County Board of Education
160 S. Hollywood St.
Memphis, TN 38112-4801
(901)416-0036
","04CH4727","000","Head Start","Head Start","Shelby County Board of Education","","160 S. Hollywood St. ","Memphis","TN","38112-4801","(901) 416-5020","3431 Sharpe Ave","Memphis","TN","38111-5017","46498"
"Double Tree Elementary","35.023563","-90.102666","Shelby County Board of Education
160 S. Hollywood St.
Memphis, TN 38112-4801
(901)416-0036
","04CH4727","000","Head Start","Head Start","Shelby County Board of Education","","160 S. Hollywood St. ","Memphis","TN","38112-4801","(901) 922-8144","4560 Double Tree Rd","Memphis","TN","38109-4887","46457"
"Germanshire Elementary","35.0400997","-89.82427129999996","Shelby County Board of Education
160 S. Hollywood St.
Memphis, TN 38112-4801
(901)416-0036
","04CH4727","000","Head Start","Head Start","Shelby County Board of Education","","160 S. Hollywood St. ","Memphis","TN","38112-4801","(901) 416-3733","3965 S Germantown Rd","Memphis","TN","38125-2015","46467"
"Fox Meadows Elementary","35.0678638","-89.88035560000003","Shelby County Board of Education
160 S. Hollywood St.
Memphis, TN 38112-4801
(901)416-0036
","04CH4727","000","Head Start","Head Start","Shelby County Board of Education","","160 S. Hollywood St. ","Memphis","TN","38112-4801","(901) 416-2530","2960 Emerald St","Memphis","TN","38115-2305","46465"
"Tipton Co. Head Start","35.6744093","-89.58073339999999","Northwest Tennessee Head Start
938 C Walnut Avenue West
McKenzie, TN 38201-1970
(731)352-4743 - 6502
","04CH010416","000","Head Start","Head Start","Northwest Tennessee Head Start","","938 C Walnut Avenue West ","McKenzie","TN","38201-1970","(901) 476-7488","410 Alston Ave","Covington","TN","38019-2022","84596"
"LANIER","35.6224328","-84.09616729999999","Douglas-Cherokee Economic Authority, Inc.
534 E 1st North St
Morristown, TN 37814-4716
(423)587-4501 - 129
","04CH9999","000","Head Start","Head Start","Douglas-Cherokee Economic Authority, Inc.","","534 E 1st North St ","Morristown","TN","37814-4716","(865) 856-6060","6004 Lanier Rd","Maryville","TN","37801-1129","56937"
"Avondale","35.054512","-85.25839400000001","Chattanooga YFD Head Start/EHS Program
2302 Ocoee St
Chattanooga, TN 37406-3564
(423)643-6537
","04CH010085","000","Head Start","Head Start","Chattanooga YFD Head Start/EHS Program","","2302 Ocoee St ","Chattanooga","TN","37406-3564","(423) 643-6533","2302 Ocoee St","Chattanooga","TN","37406-3564","56815"
"Huntingdon Pre-K Head Start","36.008468","-88.43028900000002","Northwest Tennessee Head Start
938 C Walnut Avenue West
McKenzie, TN 38201-1970
(731)352-4743 - 6502
","04CH010416","000","Head Start","Head Start","Northwest Tennessee Head Start","","938 C Walnut Avenue West ","McKenzie","TN","38201-1970","(731) 986-7574","13310 Paris St","Huntingdon","TN","38344-2522","84601"
"Black Fox Head Start/ Pre K","35.12609","-84.92243100000002","Family Resource Agency, Inc.
3680 Michigan Avenue Rd NE
Cleveland, TN 37323-5721
(423)303-3536
","04CH010316","000","Head Start","Head Start","Family Resource Agency, Inc.","","3680 Michigan Avenue Rd NE ","Cleveland","TN","37323-5721","(423) 476-0535","3119 Varnell Rd SW","Cleveland","TN","37311-8348","82076"
"Reagan","35.5084024","-88.32431020000001","SOUTHWEST HUMAN RESOURCE AGENCY
1527 White Ave
Henderson, TN 38340-7625
(731)989-5111
","04CH4711","000","Head Start","Head Start","SOUTHWEST HUMAN RESOURCE AGENCY","","1527 White Ave ","Henderson","TN","38340-7625","(731) 549-9413","5820 Highway 100
P O Box 62","Reagan","TN","38368-3601","43939"
"Kingsbury Elementary","35.1694106","-89.92483140000002","Shelby County Board of Education
160 S. Hollywood St.
Memphis, TN 38112-4801
(901)416-0036
","04CH4727","000","Head Start","Head Start","Shelby County Board of Education","","160 S. Hollywood St. ","Memphis","TN","38112-4801","(901) 416-6020","4055 Bayliss Ave","Memphis","TN","38108-3525","46482"
"Cedar Hill","34.988694","-85.29629790000001","Chattanooga YFD Head Start/EHS Program
2302 Ocoee St
Chattanooga, TN 37406-3564
(423)643-6537
","04CH010085","000","Head Start","Head Start","Chattanooga YFD Head Start/EHS Program","","2302 Ocoee St ","Chattanooga","TN","37406-3564","(423) 867-3236","4701 Divine Ave","Chattanooga","TN","37407-3226","56812"
"Oakshire Elementary","35.0050107","-90.00419139999997","Shelby County Board of Education
160 S. Hollywood St.
Memphis, TN 38112-4801
(901)416-0036
","04CH4727","000","Head Start","Head Start","Shelby County Board of Education","","160 S. Hollywood St. ","Memphis","TN","38112-4801","(901) 416-3140","1765 E Holmes Rd","Memphis","TN","38116-9160","58848"
"Springdale Elementary","35.159548","-89.974965","Shelby County Board of Education
160 S. Hollywood St.
Memphis, TN 38112-4801
(901)416-0036
","04CH4727","000","Head Start","Head Start","Shelby County Board of Education","","160 S. Hollywood St. ","Memphis","TN","38112-4801","(901) 416-4883","880 N Hollywood St","Memphis","TN","38108-3309","46475"
"Unicoi/Erwin","36.148895","-82.41281099999998","UPPER EAST TENNESSEE HUMAN DEVELOPMENT AGENCY
301 Louis St
Kingsport, TN 37660-5181
(423)230-3732
","04CH4688","000","Head Start","Head Start","UPPER EAST TENNESSEE HUMAN DEVELOPMENT AGENCY","","301 Louis St ","Kingsport","TN","37660-5181","(423) 743-0994","435 N Main Ave","Erwin","TN","37650","39066"
"Manor Lake Elementary","35.0150911","-90.0664123","Shelby County Board of Education
160 S. Hollywood St.
Memphis, TN 38112-4801
(901)416-0036
","04CH4727","000","Head Start","Head Start","Shelby County Board of Education","","160 S. Hollywood St. ","Memphis","TN","38112-4801","(901) 416-8170","4900 Horn Lake Rd","Memphis","TN","38109-6600","86695"
"Vollentine Elementary","35.1645484","-90.0014259","Shelby County Board of Education
160 S. Hollywood St.
Memphis, TN 38112-4801
(901)416-0036
","04CH4727","000","Head Start","Head Start","Shelby County Board of Education","","160 S. Hollywood St. ","Memphis","TN","38112-4801","(901) 416-4632","1682 Vollintine Ave","Memphis","TN","38107-3030","86091"
"Midtown Educational Center","35.8704685","-84.57671219999997","Mid-East Community Action Agency
315 E Race St
Kingston, TN 37763-2828
(865)376-2308 - 231
","04CH0450","000","Head Start","Head Start","Mid-East Community Action Agency","","315 E Race St ","Kingston","TN","37763-2828","(865) 882-1033","3092 Roane State Hwy","Harriman","TN","37748-7781","38395"
"Claxton West Head Start Center","35.970028","-83.97061500000001","KNOXVILLE KNOX COUNTY COMMUNITY ACTION COMMISSION
2400 Piedmont St
Knoxville, TN 37921-7048
(865)522-2193
","04CH4692","000","Head Start","Head Start","KNOXVILLE KNOX COUNTY COMMUNITY ACTION COMMISSION","","2400 Piedmont St ","Knoxville","TN","37921-7048","(865) 971-5845","2400 Piedmont St","Knoxville","TN","37921-7048","39034"
"NEWPORT","36.008114","-83.23831999999999","Douglas-Cherokee Economic Authority, Inc.
534 E 1st North St
Morristown, TN 37814-4716
(423)587-4501 - 129
","04CH9999","000","Head Start","Head Start","Douglas-Cherokee Economic Authority, Inc.","","534 E 1st North St ","Morristown","TN","37814-4716","(423) 623-1846","175 Highway 25 E","Newport","TN","37821-8169","56938"
"Southwind Elementary","35.025896","-89.79110500000002","Shelby County Board of Education
160 S. Hollywood St.
Memphis, TN 38112-4801
(901)416-0036
","04CH4727","000","Head Start","Head Start","Shelby County Board of Education","","160 S. Hollywood St. ","Memphis","TN","38112-4801","(901) 756-2325","8155 Meadow Vale Dr","Memphis","TN","38125-3207","46476"
"WAVERLY HEAD START","36.0820104","-87.77723349999997","Highland Rim Economic Corporation
3215 Highway 149
Erin, TN 37061-5407
(931)289-4135
","04CH4663","000","Head Start","Head Start","Highland Rim Economic Corporation","","3215 Highway 149 ","Erin","TN","37061-5407","(931) 296-7401","612 E Main St","Waverly","TN","37185-1732","32859"
"Childcare Network 135","35.121713","-85.24154399999998","Chattanooga YFD Head Start/EHS Program
2302 Ocoee St
Chattanooga, TN 37406-3564
(423)643-6537
","04CH010085","000","Head Start","Head Start","Chattanooga YFD Head Start/EHS Program","","2302 Ocoee St ","Chattanooga","TN","37406-3564","(423) 877-4180","1818C Hamill Rd","Hixson","TN","37343-4907","56813"
"LON PRICE","36.2238811","-83.28768100000002","Douglas-Cherokee Economic Authority, Inc.
534 E 1st North St
Morristown, TN 37814-4716
(423)587-4501 - 129
","04CH9999","000","Head Start","Head Start","Douglas-Cherokee Economic Authority, Inc.","","534 E 1st North St ","Morristown","TN","37814-4716","(423) 585-0367","925 Panorama Dr","Morristown","TN","37814-4271","56946"
"UNDERWOOD","35.99728899999999","-83.63536490000001","Douglas-Cherokee Economic Authority, Inc.
534 E 1st North St
Morristown, TN 37814-4716
(423)587-4501 - 129
","04CH9999","000","Head Start","Head Start","Douglas-Cherokee Economic Authority, Inc.","","534 E 1st North St ","Morristown","TN","37814-4716","(865) 933-5656","4125 Douglas Dam Rd","Kodak","TN","37764-1217","56951"
"Kyles Ford Head Start Center","36.57","-83.05000000000001","Clinch-Powell Educational Cooperative
106 Ingle Dr
Tazewell, TN 37879-3640
(423)626-9270
","04CH010267","000","Head Start","Head Start","Clinch-Powell Educational Cooperative","","106 Ingle Dr ","Tazewell","TN","37879-3640","(423) 733-1500","RR 1","Kyles Ford","TN","37765-9801","80755"
"Florida Avenue","36.5900782","-82.16678409999997","UPPER EAST TENNESSEE HUMAN DEVELOPMENT AGENCY
301 Louis St
Kingsport, TN 37660-5181
(423)230-3732
","04CH4688","000","Head Start","Head Start","UPPER EAST TENNESSEE HUMAN DEVELOPMENT AGENCY","","301 Louis St ","Kingsport","TN","37660-5181","(423) 764-7366","703 Florida Ave","Bristol","TN","37620-4009","39045"
"MOUNT VERNON","35.4118382","-84.36312370000002","Douglas-Cherokee Economic Authority, Inc.
534 E 1st North St
Morristown, TN 37814-4716
(423)587-4501 - 129
","04CH9999","000","Head Start","Head Start","Douglas-Cherokee Economic Authority, Inc.","","534 E 1st North St ","Morristown","TN","37814-4716","(423) 442-2328","119 Reagan Valley Rd","Tellico Plains","TN","37385-5294","56957"
"Robbins Head Start Center","36.3517078","-84.58738410000001","Clinch-Powell Educational Cooperative
106 Ingle Dr
Tazewell, TN 37879-3640
(423)626-9270
","04CH010267","000","Head Start","Head Start","Clinch-Powell Educational Cooperative","","106 Ingle Dr ","Tazewell","TN","37879-3640","(423) 627-4647","359 School House Rd","Robbins","TN","37852-1852","80723"
"Clarkrange Head Start","36.2232837","-85.00667810000004","Livingston Byrdstown Jamestown & Cookeville Dev Corp
1150 Chocolate Drive
Cookeville, TN 38501-2006
(931)528-3361
","04CH4696","000","Head Start","Head Start","Livingston Byrdstown Jamestown & Cookeville Dev Corp","","1150 Chocolate Drive ","Cookeville","TN","38501-2006","(931) 863-3255","1399 Franklin Loop","Clarkrange","TN","38553-5178","41642"
"Academy of Early Learning","35.0613522","-85.2418161","Chattanooga YFD Head Start/EHS Program
2302 Ocoee St
Chattanooga, TN 37406-3564
(423)643-6537
","04CH010085","000","Head Start","Head Start","Chattanooga YFD Head Start/EHS Program","","2302 Ocoee St ","Chattanooga","TN","37406-3564","(423) 493-0771","1800 Greenwood Rd","Chattanooga","TN","37406-2655","56819"
"Bean Station","36.3119835","-83.31106190000003","Douglas-Cherokee Economic Authority, Inc.
534 E 1st North St
Morristown, TN 37814-4716
(423)587-4501 - 129
","04CH9999","000","Head Start","Head Start","Douglas-Cherokee Economic Authority, Inc.","","534 E 1st North St ","Morristown","TN","37814-4716","(865) 993-7734","450 Ella Cir","Bean Station","TN","37708-6656","56961"
"Humbolt Head Start","35.862765","-88.86087099999997","Northwest Tennessee Head Start
938 C Walnut Avenue West
McKenzie, TN 38201-1970
(731)352-4743 - 6502
","04CH010416","000","Head Start","Head Start","Northwest Tennessee Head Start","","938 C Walnut Avenue West ","McKenzie","TN","38201-1970","(731) 787-7574","152 Hwy 70 Humboldt-Gibson Rd","Humboldt","TN","38343","84589"
"Mountain City","36.472972","-81.807459","Johnson County Head Start
211 North Church Street
Mountain City, TN 37683-1325
(423)727-2640
","04CH4688","001","Head Start","Head Start","Johnson County Head Start","","211 North Church Street ","Mountain City","TN","37683-1325","(423) 727-2621","301 Donnelly St","Mountain City","TN","37683-1509","40764"
"Frederick Douglass Head Start","36.1764762","-86.7620604","Metropolitan Action Commission
800 2nd Ave N
Nashville, TN 37201-1083
(615)862-8860 - 70146
","04CH010156","000","Head Start","Head Start","Metropolitan Action Commission","","800 2nd Ave N ","Nashville","TN","37201-1083","(615) 862-8878","621 Howerton St","Nashville","TN","37206-0016","56852"
"NIOTA HEAD START","35.517936","-84.55431499999997","Family Resource Agency, Inc.
3680 Michigan Avenue Rd NE
Cleveland, TN 37323-5721
(423)303-3536
","04CH010316","000","Head Start","Head Start","Family Resource Agency, Inc.","","3680 Michigan Avenue Rd NE ","Cleveland","TN","37323-5721","(423) 568-3025","418 N Burn Rd","Niota","TN","37826-3358","81992"
"Baileyton","36.3329753","-82.83852430000002","UPPER EAST TENNESSEE HUMAN DEVELOPMENT AGENCY
301 Louis St
Kingsport, TN 37660-5181
(423)230-3732
","04CH4688","000","Head Start","Head Start","UPPER EAST TENNESSEE HUMAN DEVELOPMENT AGENCY","","301 Louis St ","Kingsport","TN","37660-5181","(423) 234-2753","6536 Horton Hwy","Greeneville","TN","37745-7639","39051"
"East Cleveland Early Childhood Development Center","35.156201","-84.85005899999999","Family Resource Agency, Inc.
3680 Michigan Avenue Rd NE
Cleveland, TN 37323-5721
(423)303-3536
","04CH010316","000","Head Start","Head Start","Family Resource Agency, Inc.","","3680 Michigan Avenue Rd NE ","Cleveland","TN","37323-5721","(423) 402-4703","1450 Strawberry Ln NE","Cleveland","TN","37311-5649","82069"
"NEW PROVIDENCE","35.750527","-83.977891","Douglas-Cherokee Economic Authority, Inc.
534 E 1st North St
Morristown, TN 37814-4716
(423)587-4501 - 129
","04CH9999","000","Head Start","Head Start","Douglas-Cherokee Economic Authority, Inc.","","534 E 1st North St ","Morristown","TN","37814-4716","(865) 984-2963","703 W Broadway Ave","Maryville","TN","37801-4715","56959"
"American Way Head Start","35.0759886","-89.92243930000001","Shelby County Board of Education
160 S. Hollywood St.
Memphis, TN 38112-4801
(901)416-0036
","04CH4727","000","Head Start","Head Start","Shelby County Board of Education","","160 S. Hollywood St. ","Memphis","TN","38112-4801","(901) 794-7544","4207 American Way","Memphis","TN","38118-2019","46436"
"Altamont Head Start","35.39893840000001","-85.70015939999996","SEQUATCHIE VALLEY PLANNING & DEVELOPMENT DISTRICT
501 Westfield Pl
Jasper, TN 37347-5144
(423)939-1005
","04CH4786","000","Head Start","Head Start","SEQUATCHIE VALLEY PLANNING & DEVELOPMENT DISTRICT","","501 Westfield Pl ","Jasper","TN","37347-5144","(931) 692-3079","67 Community Center Rd","Coalmont","TN","37313-7713","51918"
"Boones Creek","36.3741863","-82.4311394","UPPER EAST TENNESSEE HUMAN DEVELOPMENT AGENCY
301 Louis St
Kingsport, TN 37660-5181
(423)230-3732
","04CH4688","000","Head Start","Head Start","UPPER EAST TENNESSEE HUMAN DEVELOPMENT AGENCY","","301 Louis St ","Kingsport","TN","37660-5181","(423) 282-3089","348 Christian Church Rd","Gray","TN","37615-4500","39047"
"MCS - Black Fox","35.8140729","-86.36566370000003","MID-CUMBERLAND COMMUNITY ACTION
412 Vine Street
Murfreesboro, TN 37130-
(615)893-6614 - 1026
","04CH4771","000","Head Start","Head Start","MID-CUMBERLAND COMMUNITY ACTION","","412 Vine Street ","Murfreesboro","TN","37130","(615) 542-9565","1753 S Rutherford Blvd","Murfreesboro","TN","37130-5957","49497"
"Getwell Elementary","35.0451318","-89.93382659999997","Shelby County Board of Education
160 S. Hollywood St.
Memphis, TN 38112-4801
(901)416-0036
","04CH4727","000","Head Start","Head Start","Shelby County Board of Education","","160 S. Hollywood St. ","Memphis","TN","38112-4801","(901) 416-0267","3795 Getwell Road","Memphis","TN","38118","46468"
"Cummings Elementary","35.1179624","-90.02734750000002","Shelby County Board of Education
160 S. Hollywood St.
Memphis, TN 38112-4801
(901)416-0036
","04CH4727","000","Head Start","Head Start","Shelby County Board of Education","","160 S. Hollywood St. ","Memphis","TN","38112-4801","(901) 416-7810","1037 Cummings St","Memphis","TN","38106-2209","46455"
"West LaFollette Head Start Center","36.38061","-84.11869200000001","Clinch-Powell Educational Cooperative
106 Ingle Dr
Tazewell, TN 37879-3640
(423)626-9270
","04CH010267","000","Head Start","Head Start","Clinch-Powell Educational Cooperative","","106 Ingle Dr ","Tazewell","TN","37879-3640","(423) 562-7335","210 E Beech St","La Follette","TN","37766-3672","80721"
"Douglass Head Start","35.175698","-89.95179300000001","Shelby County Board of Education
160 S. Hollywood St.
Memphis, TN 38112-4801
(901)416-0036
","04CH4727","000","Head Start","Head Start","Shelby County Board of Education","","160 S. Hollywood St. ","Memphis","TN","38112-4801","(901) 452-7736","1600 Ash St","Memphis","TN","38108-1927","46441"
"SHADY GROVE","36.0298622","-83.42650119999996","Douglas-Cherokee Economic Authority, Inc.
534 E 1st North St
Morristown, TN 37814-4716
(423)587-4501 - 129
","04CH9999","000","Head Start","Head Start","Douglas-Cherokee Economic Authority, Inc.","","534 E 1st North St ","Morristown","TN","37814-4716","(865) 397-1417","942 Industrial Park Rd","Dandridge","TN","37725-4700","56944"
"A. B. Hill Elementary","35.1098611","-90.0509005","Shelby County Board of Education
160 S. Hollywood St.
Memphis, TN 38112-4801
(901)416-0036
","04CH4727","000","Head Start","Head Start","Shelby County Board of Education","","160 S. Hollywood St. ","Memphis","TN","38112-4801","(901) 416-7844","345 E Olive Ave","Memphis","TN","38106-4207","86022"
"JUDSON HILL","36.220262","-83.29549600000001","Douglas-Cherokee Economic Authority, Inc.
534 E 1st North St
Morristown, TN 37814-4716
(423)587-4501 - 129
","04CH9999","000","Head Start","Head Start","Douglas-Cherokee Economic Authority, Inc.","","534 E 1st North St ","Morristown","TN","37814-4716","(423) 586-3676","776 N Cumberland St","Morristown","TN","37814-4118","56950"
"Girls Inc. Head Start","36.5506847","-82.5474542","UPPER EAST TENNESSEE HUMAN DEVELOPMENT AGENCY
301 Louis St
Kingsport, TN 37660-5181
(423)230-3732
","04CH4688","000","Head Start","Head Start","UPPER EAST TENNESSEE HUMAN DEVELOPMENT AGENCY","","301 Louis St ","Kingsport","TN","37660-5181","(423) 247-2321","1100 Girls Place","Kingsport","TN","37660","39073"
"Brookside Head Start","35.62072","-85.79611","Livingston Byrdstown Jamestown & Cookeville Dev Corp
1150 Chocolate Drive
Cookeville, TN 38501-2006
(931)528-3361
","04CH4696","000","Head Start","Head Start","Livingston Byrdstown Jamestown & Cookeville Dev Corp","","1150 Chocolate Drive ","Cookeville","TN","38501-2006","(931) 668-7043","87 John Locke Rd","Mc Minnville","TN","37110-5058","41635"
"Corryton","36.1681872","-83.80173439999999","Douglas-Cherokee Economic Authority, Inc.
534 E 1st North St
Morristown, TN 37814-4716
(423)587-4501 - 129
","04CH9999","000","Head Start","Head Start","Douglas-Cherokee Economic Authority, Inc.","","534 E 1st North St ","Morristown","TN","37814-4716","(865) 992-9101","8793 Corryton Rd","Corryton","TN","37721-5007","56968"
"Caldwell Lane","36.5041316","-87.34737109999998","Clarksville / Montgomery County CAA
150 Lafayette Rd
Clarksville, TN 37042-4205
(931)896-1806
","04CH010248","000","Head Start","Head Start","Clarksville / Montgomery County CAA","","150 Lafayette Rd ","Clarksville","TN","37042-4205","(931) 648-5785","226 Caldwell Ln","Clarksville","TN","37040-4204","80329"
"WCS - Rutland","36.168024","-86.47948199999996","MID-CUMBERLAND COMMUNITY ACTION
412 Vine Street
Murfreesboro, TN 37130-
(615)893-6614 - 1026
","04CH4771","000","Head Start","Head Start","MID-CUMBERLAND COMMUNITY ACTION","","412 Vine Street ","Murfreesboro","TN","37130","(615) 542-9556","1995 S Rutland Rd","Mount Juliet","TN","37122-6102","49494"
"ATHENS HEAD START","35.4490636","-84.597035","Family Resource Agency, Inc.
3680 Michigan Avenue Rd NE
Cleveland, TN 37323-5721
(423)303-3536
","04CH010316","000","Head Start","Head Start","Family Resource Agency, Inc.","","3680 Michigan Avenue Rd NE ","Cleveland","TN","37323-5721","(423) 745-8274","625 Green St","Athens","TN","37303-2657","81989"
"Norwood Head Start/ Early Head Start","36.0221806","-84.31241260000002","Anderson County Schools' Preschool
708 N Main St
Clinton, TN 37716-3143
(865)463-2833
","04CH9994","000","Head Start","Head Start","Anderson County Schools' Preschool","","708 N Main St ","Clinton","TN","37716-3143","(865) 435-6025","809 E Tri County Blvd","Oliver Springs","TN","37840-1844","56868"
"Gallatin I Head Start","36.3912811","-86.44994020000001","MID-CUMBERLAND COMMUNITY ACTION
412 Vine Street
Murfreesboro, TN 37130-
(615)893-6614 - 1026
","04CH4771","000","Head Start","Head Start","MID-CUMBERLAND COMMUNITY ACTION","","412 Vine Street ","Murfreesboro","TN","37130","(615) 451-0323","242 W Eastland St","Gallatin","TN","37066-2704","48595"
"Sullivan","36.4803164","-82.5941396","UPPER EAST TENNESSEE HUMAN DEVELOPMENT AGENCY
301 Louis St
Kingsport, TN 37660-5181
(423)230-3732
","04CH4688","000","Head Start","Head Start","UPPER EAST TENNESSEE HUMAN DEVELOPMENT AGENCY","","301 Louis St ","Kingsport","TN","37660-5181","(423) 349-6096","209 Rosemont St","Kingsport","TN","37660-7816","39046"
"Dunlap Head Start","35.358675","-85.40388000000002","SEQUATCHIE VALLEY PLANNING & DEVELOPMENT DISTRICT
501 Westfield Pl
Jasper, TN 37347-5144
(423)939-1005
","04CH4786","000","Head Start","Head Start","SEQUATCHIE VALLEY PLANNING & DEVELOPMENT DISTRICT","","501 Westfield Pl ","Jasper","TN","37347-5144","(423) 949-5015","173 Jones Dr
P O Box 1226","Dunlap","TN","37327-3532","51919"
"YATES HEAD START / PRE-K","35.206962","-84.85728399999999","Family Resource Agency, Inc.
3680 Michigan Avenue Rd NE
Cleveland, TN 37323-5721
(423)303-3536
","04CH010316","000","Head Start","Head Start","Family Resource Agency, Inc.","","3680 Michigan Avenue Rd NE ","Cleveland","TN","37323-5721","(423) 614-7074","750 Mouse Creek Rd NW","Cleveland","TN","37312-3905","81994"
"Children First Child Development Center","36.3230152","-82.33506439999996","UPPER EAST TENNESSEE HUMAN DEVELOPMENT AGENCY
301 Louis St
Kingsport, TN 37660-5181
(423)230-3732
","04CH4688","000","Head Start","Head Start","UPPER EAST TENNESSEE HUMAN DEVELOPMENT AGENCY","","301 Louis St ","Kingsport","TN","37660-5181","(423) 926-7716","837 Pardee St","Johnson City","TN","37601-5900","39060"
"Amana Head Start","35.1494261","-86.57907949999998","South Central Human Resource Agency
1437 Winchester Hwy
Fayetteville, TN 37334-2757
(931)433-7182 - 182
","04CH4650","000","Head Start","Head Start","South Central Human Resource Agency","","1437 Winchester Hwy ","Fayetteville","TN","37334-2757","(931) 438-0397","506 Amana Ave","Fayetteville","TN","37334-3363","32651"
"Winchester Elementary","35.050992","-89.99737199999998","Shelby County Board of Education
160 S. Hollywood St.
Memphis, TN 38112-4801
(901)416-0036
","04CH4727","000","Head Start","Head Start","Shelby County Board of Education","","160 S. Hollywood St. ","Memphis","TN","38112-4801","(901) 416-3152","3587 Boeingshire Dr","Memphis","TN","38116-5012","46460"
"Hunter","36.3717839","-82.1583086","Carter County Head Start
305 Academy Street
Elizabethton, TN 37643-2208
(423)547-4009
","04CH4688","002","Head Start","Head Start","Carter County Head Start","","305 Academy Street ","Elizabethton","TN","37643-2208","(423) 547-4059","145 Hope St","Elizabethton","TN","37643-6431","40770"
"Larose Elementary","35.1238952","-90.04706070000003","Shelby County Board of Education
160 S. Hollywood St.
Memphis, TN 38112-4801
(901)416-0036
","04CH4727","000","Head Start","Head Start","Shelby County Board of Education","","160 S. Hollywood St. ","Memphis","TN","38112-4801","(901) 416-7848","864 S Wellington St","Memphis","TN","38126-5304","58862"
"Brownsville","35.595866","-89.27280389999999","SOUTHWEST HUMAN RESOURCE AGENCY
1527 White Ave
Henderson, TN 38340-7625
(731)989-5111
","04CH4711","000","Head Start","Head Start","SOUTHWEST HUMAN RESOURCE AGENCY","","1527 White Ave ","Henderson","TN","38340-7625","(731) 772-4104","127 N Grand Ave
Ste 1","Brownsville","TN","38012-2487","43934"
"Central Point","36.2550032","-83.48719949999997","Douglas-Cherokee Economic Authority, Inc.
534 E 1st North St
Morristown, TN 37814-4716
(423)587-4501 - 129
","04CH9999","000","Head Start","Head Start","Douglas-Cherokee Economic Authority, Inc.","","534 E 1st North St ","Morristown","TN","37814-4716","(865) 828-8585","151 Sam Roberts Ln","Rutledge","TN","37861-4553","56962"
"BURNS HEAD START","36.0524938","-87.31085999999999","Highland Rim Economic Corporation
3215 Highway 149
Erin, TN 37061-5407
(931)289-4135
","04CH4663","000","Head Start","Head Start","Highland Rim Economic Corporation","","3215 Highway 149 ","Erin","TN","37061-5407","(615) 441-3599","905 Hershell St
PO Box 451","Burns","TN","37029-6250","32862"
"Sheffield Elementary","35.0581848","-89.9207346","Shelby County Board of Education
160 S. Hollywood St.
Memphis, TN 38112-4801
(901)416-0036
","04CH4727","000","Head Start","Head Start","Shelby County Board of Education","","160 S. Hollywood St. ","Memphis","TN","38112-4801","(901) 416-2360","4290 Chuck Ave","Memphis","TN","38118-4005","86029"
"Tom Joy Head Start Center","36.203666","-86.75969099999998","Metropolitan Action Commission
800 2nd Ave N
Nashville, TN 37201-1083
(615)862-8860 - 70146
","04CH010156","000","Head Start","Head Start","Metropolitan Action Commission","","800 2nd Ave N ","Nashville","TN","37201-1083","(615) 880-1690","1901 Lischey Ave","Nashville","TN","37207-5113","56854"
"Alton Elementary","35.0914653","-90.04279380000003","Shelby County Board of Education
160 S. Hollywood St.
Memphis, TN 38112-4801
(901)416-0036
","04CH4727","000","Head Start","Head Start","Shelby County Board of Education","","160 S. Hollywood St. ","Memphis","TN","38112-4801","(901) 416-7430","2020 Alton Ave","Memphis","TN","38106-7224","46446"
"Childcare Network 152","34.990757","-85.25176899999997","Chattanooga YFD Head Start/EHS Program
2302 Ocoee St
Chattanooga, TN 37406-3564
(423)643-6537
","04CH010085","000","Head Start","Head Start","Chattanooga YFD Head Start/EHS Program","","2302 Ocoee St ","Chattanooga","TN","37406-3564","","4108 Bennett Rd","Chattanooga","TN","37412-2202","56823"
"Delano Head Start","35.2014352","-90.0067646","Shelby County Board of Education
160 S. Hollywood St.
Memphis, TN 38112-4801
(901)416-0036
","04CH4727","000","Head Start","Head Start","Shelby County Board of Education","","160 S. Hollywood St. ","Memphis","TN","38112-4801","(901) 922-0836","1727 Oberle Rd","Memphis","TN","38127-8116","46440"
"Livingston Head Start","36.3926782","-85.33257400000002","Livingston Byrdstown Jamestown & Cookeville Dev Corp
1150 Chocolate Drive
Cookeville, TN 38501-2006
(931)528-3361
","04CH4696","000","Head Start","Head Start","Livingston Byrdstown Jamestown & Cookeville Dev Corp","","1150 Chocolate Drive ","Cookeville","TN","38501-2006","(931) 823-1757","480 Cross Ave","Livingston","TN","38570-1038","41639"
"VALLEY VIEW HEAD START / PRE-K","35.0444712","-84.80607889999999","Family Resource Agency, Inc.
3680 Michigan Avenue Rd NE
Cleveland, TN 37323-5721
(423)303-3536
","04CH010316","000","Head Start","Head Start","Family Resource Agency, Inc.","","3680 Michigan Avenue Rd NE ","Cleveland","TN","37323-5721","(423) 339-5444","5607 Spring Place Rd SE","Cleveland","TN","37323-8959","81993"
"PROSPECT HEAD START / PRE-K","35.1779448","-84.91790609999998","Family Resource Agency, Inc.
3680 Michigan Avenue Rd NE
Cleveland, TN 37323-5721
(423)303-3536
","04CH010316","000","Head Start","Head Start","Family Resource Agency, Inc.","","3680 Michigan Avenue Rd NE ","Cleveland","TN","37323-5721","(423) 614-7385","2450 Prospect School Rd NW","Cleveland","TN","37312-2446","81988"
"Westside Elementary","35.2169083","-90.0374575","Shelby County Board of Education
160 S. Hollywood St.
Memphis, TN 38112-4801
(901)416-0036
","04CH4727","000","Head Start","Head Start","Shelby County Board of Education","","160 S. Hollywood St. ","Memphis","TN","38112-4801","(901) 416-3725","3347 Dawn Dr","Memphis","TN","38127-5910","82801"
"Oakhaven Elementary","35.04497","-89.95814159999998","Shelby County Board of Education
160 S. Hollywood St.
Memphis, TN 38112-4801
(901)416-0036
","04CH4727","000","Head Start","Head Start","Shelby County Board of Education","","160 S. Hollywood St. ","Memphis","TN","38112-4801","(901) 416-2320","3795 Bishops Bridge Rd","Memphis","TN","38118-5714","46497"
"Kingston Elementary","35.8576943","-84.48298499999999","Mid-East Community Action Agency
315 E Race St
Kingston, TN 37763-2828
(865)376-2308 - 231
","04CH0450","000","Head Start","Head Start","Mid-East Community Action Agency","","315 E Race St ","Kingston","TN","37763-2828","(865) 376-5252","2000 Kingston Hwy","Kingston","TN","37763-4663","38396"
"Bodenham Head Start","35.220396","-87.126486","South Central Human Resource Agency
1437 Winchester Hwy
Fayetteville, TN 37334-2757
(931)433-7182 - 182
","04CH4650","000","Head Start","Head Start","South Central Human Resource Agency","","1437 Winchester Hwy ","Fayetteville","TN","37334-2757","(931) 363-0448","21142 Highway 64 W","Pulaski","TN","38478-8427","32644"
"ETSU FD/FY","36.2974723857027","-82.3831812246063","UPPER EAST TENNESSEE HUMAN DEVELOPMENT AGENCY
301 Louis St
Kingsport, TN 37660-5181
(423)230-3732
","04CH4688","000","Head Start","Head Start","UPPER EAST TENNESSEE HUMAN DEVELOPMENT AGENCY","","301 Louis St ","Kingsport","TN","37660-5181","(423) 439-4888","2101 Signal Dr","Johnson City","TN","37604-7034","86711"
"Tusculum View","36.181796","-82.789131","UPPER EAST TENNESSEE HUMAN DEVELOPMENT AGENCY
301 Louis St
Kingsport, TN 37660-5181
(423)230-3732
","04CH4688","000","Head Start","Head Start","UPPER EAST TENNESSEE HUMAN DEVELOPMENT AGENCY","","301 Louis St ","Kingsport","TN","37660-5181","(423) 787-0007","1725 Lafayette St","Greeneville","TN","37745-4215","39070"
"Ramer","35.070878","-88.61802269999998","SOUTHWEST HUMAN RESOURCE AGENCY
1527 White Ave
Henderson, TN 38340-7625
(731)989-5111
","04CH4711","000","Head Start","Head Start","SOUTHWEST HUMAN RESOURCE AGENCY","","1527 White Ave ","Henderson","TN","38340-7625","(731) 646-0169","4186 Highway 57 W","Ramer","TN","38367-7170","43936"
"ACCTC Head Start","36.1587834","-84.09595990000003","Anderson County Schools' Preschool
708 N Main St
Clinton, TN 37716-3143
(865)463-2833
","04CH9994","000","Head Start","Head Start","Anderson County Schools' Preschool","","708 N Main St ","Clinton","TN","37716-3143","(865) 463-2332","140 Maverick Cir","Clinton","TN","37716-6701","56867"
"Wells Station Elementary","35.175219","-89.91559699999999","Shelby County Board of Education
160 S. Hollywood St.
Memphis, TN 38112-4801
(901)416-0036
","04CH4727","000","Head Start","Head Start","Shelby County Board of Education","","160 S. Hollywood St. ","Memphis","TN","38112-4801","(901) 416-2172","1610 Wells Station Rd","Memphis","TN","38108-3619","46472"
"Hanley Head Start","35.113784","-89.9745949","Shelby County Board of Education
160 S. Hollywood St.
Memphis, TN 38112-4801
(901)416-0036
","04CH4727","000","Head Start","Head Start","Shelby County Board of Education","","160 S. Hollywood St. ","Memphis","TN","38112-4801","(901) 922-0861","2635 Spottswood Ave","Memphis","TN","38114-2536","46443"
"Ford Road Elementary","35.05765210000001","-90.08082139999999","Shelby County Board of Education
160 S. Hollywood St.
Memphis, TN 38112-4801
(901)416-0036
","04CH4727","000","Head Start","Head Start","Shelby County Board of Education","","160 S. Hollywood St. ","Memphis","TN","38112-4801","(901) 416-8150","3336 Ford Rd","Memphis","TN","38109-3230","46463"
"Robert R. Church Elementary","35.037185","-90.00521400000002","Shelby County Board of Education
160 S. Hollywood St.
Memphis, TN 38112-4801
(901)416-0036
","04CH4727","000","Head Start","Head Start","Shelby County Board of Education","","160 S. Hollywood St. ","Memphis","TN","38112-4801","(901) 416-0198","4100 Millbranch Rd","Memphis","TN","38116-5753","46506"
"LEARNING CENTER","36.2052819","-83.28454199999999","Douglas-Cherokee Economic Authority, Inc.
534 E 1st North St
Morristown, TN 37814-4716
(423)587-4501 - 129
","04CH9999","000","Head Start","Head Start","Douglas-Cherokee Economic Authority, Inc.","","534 E 1st North St ","Morristown","TN","37814-4716","(423) 581-2350","306 Brown Ave","Morristown","TN","37813-5203","56949"
"UCHRA Van Buren County Head Start","35.7216914","-85.37321050000003","Upper Cumberland Human Resource Agency
580 S Jefferson Ave Ste B
Cookeville, TN 38501-4673
(423)881-5182
","04CH10011","000","Head Start","Head Start","Upper Cumberland Human Resource Agency","","580 S Jefferson Ave Ste B ","Cookeville","TN","38501-4673","(423) 881-5182","24038 State Route 30","Spencer","TN","38585-3827","55568"
"Anderson South","35.929039","-83.86551299999996","KNOXVILLE KNOX COUNTY COMMUNITY ACTION COMMISSION
2400 Piedmont St
Knoxville, TN 37921-7048
(865)522-2193
","04CH4692","000","Head Start","Head Start","KNOXVILLE KNOX COUNTY COMMUNITY ACTION COMMISSION","","2400 Piedmont St ","Knoxville","TN","37921-7048","(865) 573-1846","4808 Prospect Rd","Knoxville","TN","37920-5349","39033"
"Gainesboro Head Start","36.337627","-85.656656","Livingston Byrdstown Jamestown & Cookeville Dev Corp
1150 Chocolate Drive
Cookeville, TN 38501-2006
(931)528-3361
","04CH4696","000","Head Start","Head Start","Livingston Byrdstown Jamestown & Cookeville Dev Corp","","1150 Chocolate Drive ","Cookeville","TN","38501-2006","(931) 268-3312","745 S Grundy Quarles Hwy","Gainesboro","TN","38562-5904","41625"
"Camp Creek","36.0608379","-82.76548689999998","UPPER EAST TENNESSEE HUMAN DEVELOPMENT AGENCY
301 Louis St
Kingsport, TN 37660-5181
(423)230-3732
","04CH4688","000","Head Start","Head Start","UPPER EAST TENNESSEE HUMAN DEVELOPMENT AGENCY","","301 Louis St ","Kingsport","TN","37660-5181","(423) 638-0434","2941 Camp Creek Rd","Greeneville","TN","37743-6370","39072"
"Whitehaven Elementary","35.0181431","-90.0251983","Shelby County Board of Education
160 S. Hollywood St.
Memphis, TN 38112-4801
(901)416-0036
","04CH4727","000","Head Start","Head Start","Shelby County Board of Education","","160 S. Hollywood St. ","Memphis","TN","38112-4801","(901) 416-7431","4780 Elvis Presley Blvd","Memphis","TN","38116-7770","46464"
"Pro Re Bona","35.019491","-85.27173499999998","Chattanooga YFD Head Start/EHS Program
2302 Ocoee St
Chattanooga, TN 37406-3564
(423)643-6537
","04CH010085","000","Head Start","Head Start","Chattanooga YFD Head Start/EHS Program","","2302 Ocoee St ","Chattanooga","TN","37406-3564","(423) 622-2632","1707 Dodds Ave","Chattanooga","TN","37404-5431","56816"
"North Lee Head Start/ Pre K","35.208252","-84.84466900000001","Family Resource Agency, Inc.
3680 Michigan Avenue Rd NE
Cleveland, TN 37323-5721
(423)303-3536
","04CH010316","000","Head Start","Head Start","Family Resource Agency, Inc.","","3680 Michigan Avenue Rd NE ","Cleveland","TN","37323-5721","(423) 478-8809","205 Sequoia Rd NW","Cleveland","TN","37312-4030","82066"
"South Lawrence Head Start","35.02169010000001","-87.5852797","South Central Human Resource Agency
1437 Winchester Hwy
Fayetteville, TN 37334-2757
(931)433-7182 - 182
","04CH4650","000","Head Start","Head Start","South Central Human Resource Agency","","1437 Winchester Hwy ","Fayetteville","TN","37334-2757","(931) 845-4994","114 W 2nd St","Iron City","TN","38463-7215","32643"
"Newbern Head Start","36.115753","-89.278772","Northwest Tennessee Head Start
938 C Walnut Avenue West
McKenzie, TN 38201-1970
(731)352-4743 - 6502
","04CH010416","000","Head Start","Head Start","Northwest Tennessee Head Start","","938 C Walnut Avenue West ","McKenzie","TN","38201-1970","(731) 627-2122","212 Wheatley Drive Ext","Newbern","TN","38059-1454","84599"
"OCOEE HEAD START","35.1105142","-84.68044170000002","Family Resource Agency, Inc.
3680 Michigan Avenue Rd NE
Cleveland, TN 37323-5721
(423)303-3536
","04CH010316","000","Head Start","Head Start","Family Resource Agency, Inc.","","3680 Michigan Avenue Rd NE ","Cleveland","TN","37323-5721","(423) 338-9534","1510 Cookson Creek Rd","Ocoee","TN","37361-3436","81990"
"Cottonwood Head Start","35.0689648","-89.88934030000001","Shelby County Board of Education
160 S. Hollywood St.
Memphis, TN 38112-4801
(901)416-0036
","04CH4727","000","Head Start","Head Start","Shelby County Board of Education","","160 S. Hollywood St. ","Memphis","TN","38112-4801","(901) 922-0896","5221 Cottonwood Rd","Memphis","TN","38118-2647","46437"
"Huntsville Head Start Center","36.4109882","-84.46005450000001","Clinch-Powell Educational Cooperative
106 Ingle Dr
Tazewell, TN 37879-3640
(423)626-9270
","04CH010267","000","Head Start","Head Start","Clinch-Powell Educational Cooperative","","106 Ingle Dr ","Tazewell","TN","37879-3640","(423) 663-4668","3225 Baker Hwy","Huntsville","TN","37756-4014","80946"
"Sparta Head Start","35.9503756","-85.47544390000002","Livingston Byrdstown Jamestown & Cookeville Dev Corp
1150 Chocolate Drive
Cookeville, TN 38501-2006
(931)528-3361
","04CH4696","000","Head Start","Head Start","Livingston Byrdstown Jamestown & Cookeville Dev Corp","","1150 Chocolate Drive ","Cookeville","TN","38501-2006","(931) 836-2615","430 N Spring St","Sparta","TN","38583-1342","41643"
"Roan Creek","36.422129","-81.82954589999997","Johnson County Head Start
211 North Church Street
Mountain City, TN 37683-1325
(423)727-2640
","04CH4688","001","Head Start","Head Start","Johnson County Head Start","","211 North Church Street ","Mountain City","TN","37683-1325","(423) 727-2697","2410 Roan Creek Rd","Mountain City","TN","37683-6065","40765"
"Head Homes Head Start","36.2037823","-86.28217669999998","MID-CUMBERLAND COMMUNITY ACTION
412 Vine Street
Murfreesboro, TN 37130-
(615)893-6614 - 1026
","04CH4771","000","Head Start","Head Start","MID-CUMBERLAND COMMUNITY ACTION","","412 Vine Street ","Murfreesboro","TN","37130","(615) 444-5703","No 1 Wheeler Street","Lebanon","TN","37087","48604"
"Whitwell Head Start","35.165028","-85.53736099999998","SEQUATCHIE VALLEY PLANNING & DEVELOPMENT DISTRICT
501 Westfield Pl
Jasper, TN 37347-5144
(423)939-1005
","04CH4786","000","Head Start","Head Start","SEQUATCHIE VALLEY PLANNING & DEVELOPMENT DISTRICT","","501 Westfield Pl ","Jasper","TN","37347-5144","(423) 658-7544","11057 Highway 28","Whitwell","TN","37397-5375","51916"
"Levi Elementary","35.0427955","-90.06860080000001","Shelby County Board of Education
160 S. Hollywood St.
Memphis, TN 38112-4801
(901)416-0036
","04CH4727","000","Head Start","Head Start","Shelby County Board of Education","","160 S. Hollywood St. ","Memphis","TN","38112-4801","(901) 416-8166","135 W Levi Rd","Memphis","TN","38109-4509","46484"
"Winfield Head Start Center","36.5509147","-84.45279979999998","Clinch-Powell Educational Cooperative
106 Ingle Dr
Tazewell, TN 37879-3640
(423)626-9270
","04CH010267","000","Head Start","Head Start","Clinch-Powell Educational Cooperative","","106 Ingle Dr ","Tazewell","TN","37879-3640","(423) 569-2147","23374 Scott Hwy","Winfield","TN","37892-3815","80762"
"STEWART HEAD START","36.5656754","-87.7357154","Highland Rim Economic Corporation
3215 Highway 149
Erin, TN 37061-5407
(931)289-4135
","04CH4663","000","Head Start","Head Start","Highland Rim Economic Corporation","","3215 Highway 149 ","Erin","TN","37061-5407","(931) 232-7965","500 Williams Rd","Big Rock","TN","37023-3031","32860"
"Dudley Head Start","36.1452361","-86.7657031","Metropolitan Action Commission
800 2nd Ave N
Nashville, TN 37201-1083
(615)862-8860 - 70146
","04CH010156","000","Head Start","Head Start","Metropolitan Action Commission","","800 2nd Ave N ","Nashville","TN","37201-1083","(615) 862-8885","1203 3rd Ave S","Nashville","TN","37210-4103","56853"
"Stanton","35.4624175","-89.40508750000004","SOUTHWEST HUMAN RESOURCE AGENCY
1527 White Ave
Henderson, TN 38340-7625
(731)989-5111
","04CH4711","000","Head Start","Head Start","SOUTHWEST HUMAN RESOURCE AGENCY","","1527 White Ave ","Henderson","TN","38340-7625","(731) 548-2275","5 Lafayette St","Stanton","TN","38069-4437","43930"
"North Head Start","36.181971","-86.79214530000002","Metropolitan Action Commission
800 2nd Ave N
Nashville, TN 37201-1083
(615)862-8860 - 70146
","04CH010156","000","Head Start","Head Start","Metropolitan Action Commission","","800 2nd Ave N ","Nashville","TN","37201-1083","(615) 862-8860","1624 5th Ave N","Nashville","TN","37208-2243","56847"
"TNT Head Start Center","36.4416837","-83.5836251","Clinch-Powell Educational Cooperative
106 Ingle Dr
Tazewell, TN 37879-3640
(423)626-9270
","04CH010267","000","Head Start","Head Start","Clinch-Powell Educational Cooperative","","106 Ingle Dr ","Tazewell","TN","37879-3640","(423) 626-5708","497 Davis Dr","New Tazewell","TN","37825-6542","80947"
"Nolachuckey","36.044024","-82.93379499999998","UPPER EAST TENNESSEE HUMAN DEVELOPMENT AGENCY
301 Louis St
Kingsport, TN 37660-5181
(423)230-3732
","04CH4688","000","Head Start","Head Start","UPPER EAST TENNESSEE HUMAN DEVELOPMENT AGENCY","","301 Louis St ","Kingsport","TN","37660-5181","(423) 798-9455","565 Nolichuckey Rd","Greeneville","TN","37743-1887","39065"
"Gardenview Elementary","35.0372916","-89.99686099999997","Shelby County Board of Education
160 S. Hollywood St.
Memphis, TN 38112-4801
(901)416-0036
","04CH4727","000","Head Start","Head Start","Shelby County Board of Education","","160 S. Hollywood St. ","Memphis","TN","38112-4801","(901) 416-3068","4075 Hartz Dr","Memphis","TN","38116-6018","46466"
"Wayne County Head Start","35.3079865","-87.76207590000001","South Central Human Resource Agency
1437 Winchester Hwy
Fayetteville, TN 37334-2757
(931)433-7182 - 182
","04CH4650","000","Head Start","Head Start","South Central Human Resource Agency","","1437 Winchester Hwy ","Fayetteville","TN","37334-2757","(931) 722-9413","537 Lloyd St","Waynesboro","TN","38485-2704","32648"
"Smyrna Head Start","36.008406","-86.48961359999998","MID-CUMBERLAND COMMUNITY ACTION
412 Vine Street
Murfreesboro, TN 37130-
(615)893-6614 - 1026
","04CH4771","000","Head Start","Head Start","MID-CUMBERLAND COMMUNITY ACTION","","412 Vine Street ","Murfreesboro","TN","37130","(615) 459-6038","98 Wise Dr","Smyrna","TN","37167-2100","48598"
"Cherokee","36.1260704","-83.49137559999997","Douglas-Cherokee Economic Authority, Inc.
534 E 1st North St
Morristown, TN 37814-4716
(423)587-4501 - 129
","04CH9999","000","Head Start","Head Start","Douglas-Cherokee Economic Authority, Inc.","","534 E 1st North St ","Morristown","TN","37814-4716","(865) 475-5974","110 E Old Andrew Johnson Hwy
Ste 1","Jefferson City","TN","37760-1747","56963"
"Harrelson Pre-K/Head Start","36.4299831","-88.33059939999998","Northwest Tennessee Head Start
938 C Walnut Avenue West
McKenzie, TN 38201-1970
(731)352-4743 - 6502
","04CH010416","000","Head Start","Head Start","Northwest Tennessee Head Start","","938 C Walnut Avenue West ","McKenzie","TN","38201-1970","(731) 247-3152","143 Puryear Country Club Rd","Puryear","TN","38251-3418","84606"
"Stuart Head Start/Pre K","35.1692507","-84.83748609999998","Family Resource Agency, Inc.
3680 Michigan Avenue Rd NE
Cleveland, TN 37323-5721
(423)303-3536
","04CH010316","000","Head Start","Head Start","Family Resource Agency, Inc.","","3680 Michigan Avenue Rd NE ","Cleveland","TN","37323-5721","(423) 476-8246","20th Street NW","Cleveland","TN","37312","82074"
"Harris Head Start","35.4902479","-86.46528869999997","South Central Human Resource Agency
1437 Winchester Hwy
Fayetteville, TN 37334-2757
(931)433-7182 - 182
","04CH4650","000","Head Start","Head Start","South Central Human Resource Agency","","1437 Winchester Hwy ","Fayetteville","TN","37334-2757","(931) 773-0033","610 Elm St","Shelbyville","TN","37160-2708","32678"
"Lake Terrace","36.3523052","-82.35443250000003","UPPER EAST TENNESSEE HUMAN DEVELOPMENT AGENCY
301 Louis St
Kingsport, TN 37660-5181
(423)230-3732
","04CH4688","000","Head Start","Head Start","UPPER EAST TENNESSEE HUMAN DEVELOPMENT AGENCY","","301 Louis St ","Kingsport","TN","37660-5181","(423) 282-8160","2450 Mint Hill Rd","Johnson City","TN","37601-7800","39059"
"W.H. Brewster Elementary","35.1465114","-89.97267310000001","Shelby County Board of Education
160 S. Hollywood St.
Memphis, TN 38112-4801
(901)416-0036
","04CH4727","000","Head Start","Head Start","Shelby County Board of Education","","160 S. Hollywood St. ","Memphis","TN","38112-4801","(901) 416-7150","2605 Sam Cooper Blvd","Memphis","TN","38112-2707","46469"
"RUTLEDGE","36.2701737","-83.53792399999998","Douglas-Cherokee Economic Authority, Inc.
534 E 1st North St
Morristown, TN 37814-4716
(423)587-4501 - 129
","04CH9999","000","Head Start","Head Start","Douglas-Cherokee Economic Authority, Inc.","","534 E 1st North St ","Morristown","TN","37814-4716","(865) 828-3002","272 Bryan Rd","Rutledge","TN","37861-3618","56970"
"Woodbury Head Start","35.824286","-86.079276","MID-CUMBERLAND COMMUNITY ACTION
412 Vine Street
Murfreesboro, TN 37130-
(615)893-6614 - 1026
","04CH4771","000","Head Start","Head Start","MID-CUMBERLAND COMMUNITY ACTION","","412 Vine Street ","Murfreesboro","TN","37130","(615) 563-5852","630 Lehman St","Woodbury","TN","37190-1445","48601"
"CHARLOTTE HEAD START","36.1772797","-87.3397319","Highland Rim Economic Corporation
3215 Highway 149
Erin, TN 37061-5407
(931)289-4135
","04CH4663","000","Head Start","Head Start","Highland Rim Economic Corporation","","3215 Highway 149 ","Erin","TN","37061-5407","(615) 789-3316","125 Doyles Hill Dr
PO Box 521","Charlotte","TN","37036-4907","32863"
"Savannah","35.2154276","-88.23725130000003","SOUTHWEST HUMAN RESOURCE AGENCY
1527 White Ave
Henderson, TN 38340-7625
(731)989-5111
","04CH4711","000","Head Start","Head Start","SOUTHWEST HUMAN RESOURCE AGENCY","","1527 White Ave ","Henderson","TN","38340-7625","(731) 925-8658","710 Hickory St","Savannah","TN","38372-2737","43943"
"Oakdale Pre K","35.9818842","-84.57849709999999","COMMUNITY ACTION SERVICE OF MORGAN COUNTY HEAD START
105 Longview Dr
Wartburg, TN 37887-4205
(423)346-6633
","04CH4714","000","Head Start","Head Start","COMMUNITY ACTION SERVICE OF MORGAN COUNTY HEAD START","","105 Longview Dr ","Wartburg","TN","37887-4205","(423) 346-6633","225 Clifty Creek Rd","Oakdale","TN","37829-2309","43734"
"Celina Head Start","36.547036","-85.507923","Livingston Byrdstown Jamestown & Cookeville Dev Corp
1150 Chocolate Drive
Cookeville, TN 38501-2006
(931)528-3361
","04CH4696","000","Head Start","Head Start","Livingston Byrdstown Jamestown & Cookeville Dev Corp","","1150 Chocolate Drive ","Cookeville","TN","38501-2006","(931) 243-2266","306 Williamson St","Celina","TN","38551-4032","41640"
"CHARLESTON HEAD START / PRE-K","35.2832585","-84.760695","Family Resource Agency, Inc.
3680 Michigan Avenue Rd NE
Cleveland, TN 37323-5721
(423)303-3536
","04CH010316","000","Head Start","Head Start","Family Resource Agency, Inc.","","3680 Michigan Avenue Rd NE ","Cleveland","TN","37323-5721","(423) 336-6746","8797 Hiwassee St NW","Charleston","TN","37310-6332","81991"
"Scenic Hills Elementary","35.2044877","-89.94816220000001","Shelby County Board of Education
160 S. Hollywood St.
Memphis, TN 38112-4801
(901)416-0036
","04CH4727","000","Head Start","Head Start","Shelby County Board of Education","","160 S. Hollywood St. ","Memphis","TN","38112-4801","(901) 416-4342","3450 Scenic Hwy","Memphis","TN","38128-5350","46502"
"Rhea Pre-K/Head Start","36.3006406","-88.29405380000003","Northwest Tennessee Head Start
938 C Walnut Avenue West
McKenzie, TN 38201-1970
(731)352-4743 - 6502
","04CH010416","000","Head Start","Head Start","Northwest Tennessee Head Start","","938 C Walnut Avenue West ","McKenzie","TN","38201-1970","(731) 644-3726","115 S Wilson St","Paris","TN","38242-5029","84608"
"Berry Head Start","36.122895","-86.75709","Metropolitan Action Commission
800 2nd Ave N
Nashville, TN 37201-1083
(615)862-8860 - 70146
","04CH010156","000","Head Start","Head Start","Metropolitan Action Commission","","800 2nd Ave N ","Nashville","TN","37201-1083","(615) 862-8911","2233 Winford Ave","Nashville","TN","37211-2100","56848"
"MAYNARDVILLE","36.2575664","-83.77829209999999","Douglas-Cherokee Economic Authority, Inc.
534 E 1st North St
Morristown, TN 37814-4716
(423)587-4501 - 129
","04CH9999","000","Head Start","Head Start","Douglas-Cherokee Economic Authority, Inc.","","534 E 1st North St ","Morristown","TN","37814-4716","(865) 992-7445","122 Richardson Way","Maynardville","TN","37807-3800","56953"
"Winchester Head Start","35.211696","-86.136507","South Central Human Resource Agency
1437 Winchester Hwy
Fayetteville, TN 37334-2757
(931)433-7182 - 182
","04CH4650","000","Head Start","Head Start","South Central Human Resource Agency","","1437 Winchester Hwy ","Fayetteville","TN","37334-2757","(931) 967-1543","677 Myers Rd","Winchester","TN","37398-4585","32663"
"Andersonville PreK/Head Start","36.1963843","-84.0355821","Anderson County Schools' Preschool
708 N Main St
Clinton, TN 37716-3143
(865)463-2833
","04CH9994","000","Head Start","Head Start","Anderson County Schools' Preschool","","708 N Main St ","Clinton","TN","37716-3143","(865) 494-7695","1951 Mountain Rd","Andersonville","TN","37705-4115","85618"
"HOUSTON HEAD START","36.362267","-87.65576999999996","Highland Rim Economic Corporation
3215 Highway 149
Erin, TN 37061-5407
(931)289-4135
","04CH4663","000","Head Start","Head Start","Highland Rim Economic Corporation","","3215 Highway 149 ","Erin","TN","37061-5407","(931) 289-4135","3215 Highway 149","Erin","TN","37061-5332","32858"
"Hartsville Head Start","36.3842906","-86.1397265","MID-CUMBERLAND COMMUNITY ACTION
412 Vine Street
Murfreesboro, TN 37130-
(615)893-6614 - 1026
","04CH4771","000","Head Start","Head Start","MID-CUMBERLAND COMMUNITY ACTION","","412 Vine Street ","Murfreesboro","TN","37130","(615) 542-9558","115 Lock Six Rd
Trousdale Elementary","Hartsville","TN","37074-2019","48600"
"South Cookeville Head Start","36.1521497","-85.51543520000001","Livingston Byrdstown Jamestown & Cookeville Dev Corp
1150 Chocolate Drive
Cookeville, TN 38501-2006
(931)528-3361
","04CH4696","000","Head Start","Head Start","Livingston Byrdstown Jamestown & Cookeville Dev Corp","","1150 Chocolate Drive ","Cookeville","TN","38501-2006","(931) 372-8021","571 S Willow Ave","Cookeville","TN","38501-3801","41644"
"Highland Head Start/Pre-K","36.1684709","-82.83547799999997","UPPER EAST TENNESSEE HUMAN DEVELOPMENT AGENCY
301 Louis St
Kingsport, TN 37660-5181
(423)230-3732
","04CH4688","000","Head Start","Head Start","UPPER EAST TENNESSEE HUMAN DEVELOPMENT AGENCY","","301 Louis St ","Kingsport","TN","37660-5181","(423) 638-3341","208 N Highland Ave","Greeneville","TN","37745-3830","39075"
"PARROTTSVILLE","36.028954","-83.03806399999996","Douglas-Cherokee Economic Authority, Inc.
534 E 1st North St
Morristown, TN 37814-4716
(423)587-4501 - 129
","04CH9999","000","Head Start","Head Start","Douglas-Cherokee Economic Authority, Inc.","","534 E 1st North St ","Morristown","TN","37814-4716","(423) 625-8603","1903 Old Parrottsville Hwy","Parrottsville","TN","37843-2678","56943"
"Covington Pike Head Start","35.20365","-89.895918","Shelby County Board of Education
160 S. Hollywood St.
Memphis, TN 38112-4801
(901)416-0036
","04CH4727","000","Head Start","Head Start","Shelby County Board of Education","","160 S. Hollywood St. ","Memphis","TN","38112-4801","(901) 922-0891","5025 English Towne Dr","Memphis","TN","38128-0916","46439"
"Willow Oaks Elementary","35.084921","-89.91534999999999","Shelby County Board of Education
160 S. Hollywood St.
Memphis, TN 38112-4801
(901)416-0036
","04CH4727","000","Head Start","Head Start","Shelby County Board of Education","","160 S. Hollywood St. ","Memphis","TN","38112-4801","(901) 416-2196","4417 Willow Rd","Memphis","TN","38117-6915","46459"
"Claxton Head Start","36.04287482001034","-84.11033281611327","Anderson County Schools' Preschool
708 N Main St
Clinton, TN 37716-3143
(865)463-2833
","04CH9994","000","Head Start","Head Start","Anderson County Schools' Preschool","","708 N Main St ","Clinton","TN","37716-3143","(865) 945-3816","2218 Clinton Hwy","Powell","TN","37849-7607","56865"
"Middleton","35.0619609","-88.89803","SOUTHWEST HUMAN RESOURCE AGENCY
1527 White Ave
Henderson, TN 38340-7625
(731)989-5111
","04CH4711","000","Head Start","Head Start","SOUTHWEST HUMAN RESOURCE AGENCY","","1527 White Ave ","Henderson","TN","38340-7625","(731) 376-8216","224 Roosevelt Rd
P O Box 173","Middleton","TN","38052-3414","43935"
"Central Head Start","36.3316781","-82.28743800000001","Carter County Head Start
305 Academy Street
Elizabethton, TN 37643-2208
(423)547-4009
","04CH4688","002","Head Start","Head Start","Carter County Head Start","","305 Academy Street ","Elizabethton","TN","37643-2208","(423) 547-8335","252 Taylortown Rd","Johnson City","TN","37601-8187","40772"
"Mosheim","36.1952479","-82.95552759999998","UPPER EAST TENNESSEE HUMAN DEVELOPMENT AGENCY
301 Louis St
Kingsport, TN 37660-5181
(423)230-3732
","04CH4688","000","Head Start","Head Start","UPPER EAST TENNESSEE HUMAN DEVELOPMENT AGENCY","","301 Louis St ","Kingsport","TN","37660-5181","(423) 422-9072","299 W School Street","Greeneville","TN","37743","39058"
"Child Development Center","36.4332927","-83.57246150000003","Clinch-Powell Educational Cooperative
106 Ingle Dr
Tazewell, TN 37879-3640
(423)626-9270
","04CH010267","000","Head Start","Head Start","Clinch-Powell Educational Cooperative","","106 Ingle Dr ","Tazewell","TN","37879-3640","(423) 626-2517","775 Blue Top Rd","Tazewell","TN","37879-6003","80756"
"Franklin County Pre-K","35.1853339","-86.11044909999998","South Central Human Resource Agency
1437 Winchester Hwy
Fayetteville, TN 37334-2757
(931)433-7182 - 182
","04CH4650","000","Head Start","Head Start","South Central Human Resource Agency","","1437 Winchester Hwy ","Fayetteville","TN","37334-2757","(931) 967-0626","215 S College St","Winchester","TN","37398-1519","32670"
"Ray McElhaney Early Learning Center","36.16140000000001","-83.41819299999997","Douglas-Cherokee Economic Authority, Inc.
534 E 1st North St
Morristown, TN 37814-4716
(423)587-4501 - 129
","04CH9999","000","Head Start","Head Start","Douglas-Cherokee Economic Authority, Inc.","","534 E 1st North St ","Morristown","TN","37814-4716","(423) 586-7120","7222 W Andrew Johnson Hwy","Talbott","TN","37877-8614","56971"
"Hardin County","35.2161639","-88.24814850000001","SOUTHWEST HUMAN RESOURCE AGENCY
1527 White Ave
Henderson, TN 38340-7625
(731)989-5111
","04CH4711","000","Head Start","Head Start","SOUTHWEST HUMAN RESOURCE AGENCY","","1527 White Ave ","Henderson","TN","38340-7625","(731) 925-3890","425 South St","Savannah","TN","38372-3037","43942"
"Ross Elementary","35.015276","-89.83791400000001","Shelby County Board of Education
160 S. Hollywood St.
Memphis, TN 38112-4801
(901)416-0036
","04CH4727","000","Head Start","Head Start","Shelby County Board of Education","","160 S. Hollywood St. ","Memphis","TN","38112-4801","(901) 416-1990","4890 Ross Rd","Memphis","TN","38141-8433","46505"
"Lincoln Head Start","35.6323353","-88.79952049999997","Northwest Tennessee Head Start
938 C Walnut Avenue West
McKenzie, TN 38201-1970
(731)352-4743 - 6502
","04CH010416","000","Head Start","Head Start","Northwest Tennessee Head Start","","938 C Walnut Avenue West ","McKenzie","TN","38201-1970","(731) 423-0928","219 Lincoln Cir","Jackson","TN","38301-4656","84605"
"Kenton Head Start","36.1917421","-89.00929859999997","Northwest Tennessee Head Start
938 C Walnut Avenue West
McKenzie, TN 38201-1970
(731)352-4743 - 6502
","04CH010416","000","Head Start","Head Start","Northwest Tennessee Head Start","","938 C Walnut Avenue West ","McKenzie","TN","38201-1970","(731) 749-6435","Hwy 45, 633 South Poplar St","Kenton","TN","38233","84588"
"Miles Head Start","36.4284576","-89.0454456","Northwest Tennessee Head Start
938 C Walnut Avenue West
McKenzie, TN 38201-1970
(731)352-4743 - 6502
","04CH010416","000","Head Start","Head Start","Northwest Tennessee Head Start","","938 C Walnut Avenue West ","McKenzie","TN","38201-1970","(731) 885-1533","1015 E College St","Union City","TN","38261-3603","84591"
"MCS - Mitchell Neilson Primary","35.8609676","-86.3997874","MID-CUMBERLAND COMMUNITY ACTION
412 Vine Street
Murfreesboro, TN 37130-
(615)893-6614 - 1026
","04CH4771","000","Head Start","Head Start","MID-CUMBERLAND COMMUNITY ACTION","","412 Vine Street ","Murfreesboro","TN","37130","(615) 542-9565","1303 Jones Blvd","Murfreesboro","TN","37129-2313","49513"
"Hal Henard","36.149906","-82.84146399999997","UPPER EAST TENNESSEE HUMAN DEVELOPMENT AGENCY
301 Louis St
Kingsport, TN 37660-5181
(423)230-3732
","04CH4688","000","Head Start","Head Start","UPPER EAST TENNESSEE HUMAN DEVELOPMENT AGENCY","","301 Louis St ","Kingsport","TN","37660-5181","(423) 636-8511","425 E Vann Rd","Greeneville","TN","37743-7203","39067"
"Wayne County Pre-K","35.30811044467175","-87.76205040713194","South Central Human Resource Agency
1437 Winchester Hwy
Fayetteville, TN 37334-2757
(931)433-7182 - 182
","04CH4650","000","Head Start","Head Start","South Central Human Resource Agency","","1437 Winchester Hwy ","Fayetteville","TN","37334-2757","(931) 722-7442","115 Helton St","Waynesboro","TN","38485-2700","32655"
"Oak Ridge Schools Preschool","36.0250707","-84.25100909999998","Oak Ridge Schools' Preschool
304 New York Ave
Oak Ridge, TN 37830-5217
(865)425-9101
","04CH9994","001","Head Start","Head Start","Oak Ridge Schools' Preschool","","304 New York Ave ","Oak Ridge","TN","37830-5217","(865) 425-9101","304 New York Ave","Oak Ridge","TN","37830-5217","57867"
"Cedarwood Head Start","36.18634","-86.29600199999999","MID-CUMBERLAND COMMUNITY ACTION
412 Vine Street
Murfreesboro, TN 37130-
(615)893-6614 - 1026
","04CH4771","000","Head Start","Head Start","MID-CUMBERLAND COMMUNITY ACTION","","412 Vine Street ","Murfreesboro","TN","37130","(615) 449-7163","103 Cedarwood Dr","Lebanon","TN","37087-4144","48602"
"Porter Leath Preschool (KIPP)","35.167013","-90.040279","Shelby County Board of Education
160 S. Hollywood St.
Memphis, TN 38112-4801
(901)416-0036
","04CH4727","000","Head Start","Head Start","Shelby County Board of Education","","160 S. Hollywood St. ","Memphis","TN","38112-4801","(901) 791-9391","230 Henry Ave","Memphis","TN","38107-2483","46507"
"WCS - WA Wright","36.2284793","-86.53767859999999","MID-CUMBERLAND COMMUNITY ACTION
412 Vine Street
Murfreesboro, TN 37130-
(615)893-6614 - 1026
","04CH4771","000","Head Start","Head Start","MID-CUMBERLAND COMMUNITY ACTION","","412 Vine Street ","Murfreesboro","TN","37130","(615) 542-9556","5017 Market Pl","Mount Juliet","TN","37122-2869","48612"
"Hollow Rock/Bruceton Pre K Head Start","36.03486","-88.2616916","Northwest Tennessee Head Start
938 C Walnut Avenue West
McKenzie, TN 38201-1970
(731)352-4743 - 6502
","04CH010416","000","Head Start","Head Start","Northwest Tennessee Head Start","","938 C Walnut Avenue West ","McKenzie","TN","38201-1970","(731) 418-4173","29590 Broad St","Bruceton","TN","38317","84590"
"North Ridge Crossing Head Start Center","36.00413","-83.94658500000003","KNOXVILLE KNOX COUNTY COMMUNITY ACTION COMMISSION
2400 Piedmont St
Knoxville, TN 37921-7048
(865)522-2193
","04CH4692","000","Head Start","Head Start","KNOXVILLE KNOX COUNTY COMMUNITY ACTION COMMISSION","","2400 Piedmont St ","Knoxville","TN","37921-7048","(865) 689-1183","1008 Breda Dr","Knoxville","TN","37918-1460","39028"
"Crockett Co Head Start","35.7768504","-89.1193265","Northwest Tennessee Head Start
938 C Walnut Avenue West
McKenzie, TN 38201-1970
(731)352-4743 - 6502
","04CH010416","000","Head Start","Head Start","Northwest Tennessee Head Start","","938 C Walnut Avenue West ","McKenzie","TN","38201-1970","(731) 696-3217","151 Conley Rd","Alamo","TN","38001-2125","84600"
"Elk Valley Head Start Center","36.426938","-84.2278796","Clinch-Powell Educational Cooperative
106 Ingle Dr
Tazewell, TN 37879-3640
(423)626-9270
","04CH010267","000","Head Start","Head Start","Clinch-Powell Educational Cooperative","","106 Ingle Dr ","Tazewell","TN","37879-3640","(423) 784-2193","6693 Highway 97","Pioneer","TN","37847","80758"
"Mary Blount Head Start","35.7577817","-84.0343914","Douglas-Cherokee Economic Authority, Inc.
534 E 1st North St
Morristown, TN 37814-4716
(423)587-4501 - 129
","04CH9999","000","Head Start","Head Start","Douglas-Cherokee Economic Authority, Inc.","","534 E 1st North St ","Morristown","TN","37814-4716","(865) 982-0608","321 Old Glory Rd","Maryville","TN","37801-7841","56974"
"Weaver","36.52526599999999","-82.18658299999998","UPPER EAST TENNESSEE HUMAN DEVELOPMENT AGENCY
301 Louis St
Kingsport, TN 37660-5181
(423)230-3732
","04CH4688","000","Head Start","Head Start","UPPER EAST TENNESSEE HUMAN DEVELOPMENT AGENCY","","301 Louis St ","Kingsport","TN","37660-5181","(423) 844-0038","3341 Weaver Pike","Bristol","TN","37620-8393","39043"
"Northside Head Start","35.5093639","-86.45786930000003","South Central Human Resource Agency
1437 Winchester Hwy
Fayetteville, TN 37334-2757
(931)433-7182 - 182
","04CH4650","000","Head Start","Head Start","South Central Human Resource Agency","","1437 Winchester Hwy ","Fayetteville","TN","37334-2757","(1) 931-773","105 Northside Cir","Shelbyville","TN","37160-2374","47838"
"Douglas Dam","35.9045635","-83.57874019999997","Douglas-Cherokee Economic Authority, Inc.
534 E 1st North St
Morristown, TN 37814-4716
(423)587-4501 - 129
","04CH9999","000","Head Start","Head Start","Douglas-Cherokee Economic Authority, Inc.","","534 E 1st North St ","Morristown","TN","37814-4716","(865) 428-5010","1395 Douglas Dam Rd","Sevierville","TN","37876-1568","56966"
"Ashland City Head Start","36.2721332","-87.06252089999998","MID-CUMBERLAND COMMUNITY ACTION
412 Vine Street
Murfreesboro, TN 37130-
(615)893-6614 - 1026
","04CH4771","000","Head Start","Head Start","MID-CUMBERLAND COMMUNITY ACTION","","412 Vine Street ","Murfreesboro","TN","37130","(615) 792-1224","104B Elizabeth St","Ashland City","TN","37015-1101","48596"
"Woodmore","35.031284","-85.22544200000004","Chattanooga YFD Head Start/EHS Program
2302 Ocoee St
Chattanooga, TN 37406-3564
(423)643-6537
","04CH010085","000","Head Start","Head Start","Chattanooga YFD Head Start/EHS Program","","2302 Ocoee St ","Chattanooga","TN","37406-3564","(423) 493-0394","800 Woodmore Ln","Chattanooga","TN","37411-2309","56821"
"Ganns Middle Valley","35.1907808","-85.1907158","Chattanooga YFD Head Start/EHS Program
2302 Ocoee St
Chattanooga, TN 37406-3564
(423)643-6537
","04CH010085","000","Head Start","Head Start","Chattanooga YFD Head Start/EHS Program","","2302 Ocoee St ","Chattanooga","TN","37406-3564","(423) 843-4700","1609 Thrasher Pike","Hixson","TN","37343-1688","86359"
"Charjean Elementary","35.0865","-89.98138399999999","Shelby County Board of Education
160 S. Hollywood St.
Memphis, TN 38112-4801
(901)416-0036
","04CH4727","000","Head Start","Head Start","Shelby County Board of Education","","160 S. Hollywood St. ","Memphis","TN","38112-4801","(901) 416-5016","2140 Charjean Rd","Memphis","TN","38114-5305","58828"
"Clinton Head Start/ Early Head Start","36.111294","-84.13208889999999","Anderson County Schools' Preschool
708 N Main St
Clinton, TN 37716-3143
(865)463-2833
","04CH9994","000","Head Start","Head Start","Anderson County Schools' Preschool","","708 N Main St ","Clinton","TN","37716-3143","(865) 463-2833","708 N Main St","Clinton","TN","37716-3143","56869"
"Michigan Ave HS","35.1637409","-84.82103569999998","Family Resource Agency, Inc.
3680 Michigan Avenue Rd NE
Cleveland, TN 37323-5721
(423)303-3536
","04CH010316","000","Head Start","Head Start","Family Resource Agency, Inc.","","3680 Michigan Avenue Rd NE ","Cleveland","TN","37323-5721","(423) 303-3536","188 Michigan Avenue School Rd NE","Cleveland","TN","37323-5408","82088"
"George Clem","36.1639298","-82.83981189999997","UPPER EAST TENNESSEE HUMAN DEVELOPMENT AGENCY
301 Louis St
Kingsport, TN 37660-5181
(423)230-3732
","04CH4688","000","Head Start","Head Start","UPPER EAST TENNESSEE HUMAN DEVELOPMENT AGENCY","","301 Louis St ","Kingsport","TN","37660-5181","(423) 639-3031","310 Floral St","Greeneville","TN","37743-3612","39062"
"NORTHWEST","35.9887049","-83.17836490000002","Douglas-Cherokee Economic Authority, Inc.
534 E 1st North St
Morristown, TN 37814-4716
(423)587-4501 - 129
","04CH9999","000","Head Start","Head Start","Douglas-Cherokee Economic Authority, Inc.","","534 E 1st North St ","Morristown","TN","37814-4716","(423) 623-5687","350 Woodson Rd","Newport","TN","37821-5144","56940"
"Valley View Head Start Center","36.41683099999999","-84.03276210000001","Clinch-Powell Educational Cooperative
106 Ingle Dr
Tazewell, TN 37879-3640
(423)626-9270
","04CH010267","000","Head Start","Head Start","Clinch-Powell Educational Cooperative","","106 Ingle Dr ","Tazewell","TN","37879-3640","(423) 562-7090","1189 Old Middlesboro Hwy","La Follette","TN","37766-5142","80761"
"Clifton Hills Elementary","35.009263","-85.291343","Chattanooga YFD Head Start/EHS Program
2302 Ocoee St
Chattanooga, TN 37406-3564
(423)643-6537
","04CH010085","000","Head Start","Head Start","Chattanooga YFD Head Start/EHS Program","","2302 Ocoee St ","Chattanooga","TN","37406-3564","(423) 493-0357","1815 E 32nd St","Chattanooga","TN","37407-1721","86356"
"Dyersburg Central Head Start","36.0326915","-89.40646620000001","Northwest Tennessee Head Start
938 C Walnut Avenue West
McKenzie, TN 38201-1970
(731)352-4743 - 6502
","04CH010416","000","Head Start","Head Start","Northwest Tennessee Head Start","","938 C Walnut Avenue West ","McKenzie","TN","38201-1970","(731) 285-3776","1400 Hornbrook St","Dyersburg","TN","38024-4305","84602"
"McKenzie Head Start","36.130418","-88.53209800000002","Northwest Tennessee Head Start
938 C Walnut Avenue West
McKenzie, TN 38201-1970
(731)352-4743 - 6502
","04CH010416","000","Head Start","Head Start","Northwest Tennessee Head Start","","938 C Walnut Avenue West ","McKenzie","TN","38201-1970","(731) 352-7170","938 Walnut Ave W","Mc Kenzie","TN","38201-1943","84593"
"Martin Luther King Head Start","35.1299381","-90.04434789999999","Shelby County Board of Education
160 S. Hollywood St.
Memphis, TN 38112-4801
(901)416-0036
","04CH4727","000","Head Start","Head Start","Shelby County Board of Education","","160 S. Hollywood St. ","Memphis","TN","38112-4801","(901) 922-0872","626 S Lauderdale St","Memphis","TN","38126-2756","46444"
"Ellen Myers Head Start Center","36.5869548","-83.65451949999999","Clinch-Powell Educational Cooperative
106 Ingle Dr
Tazewell, TN 37879-3640
(423)626-9270
","04CH010267","000","Head Start","Head Start","Clinch-Powell Educational Cooperative","","106 Ingle Dr ","Tazewell","TN","37879-3640","(423) 869-4513","305 Nettleton Road","Cumberland Gap","TN","37752","80759"
"Parsons","35.645156","-88.13002119999999","SOUTHWEST HUMAN RESOURCE AGENCY
1527 White Ave
Henderson, TN 38340-7625
(731)989-5111
","04CH4711","000","Head Start","Head Start","SOUTHWEST HUMAN RESOURCE AGENCY","","1527 White Ave ","Henderson","TN","38340-7625","(731) 847-4234","140 Texas Ave","Parsons","TN","38363-2410","43933"
"WHITE PINE","36.0980174","-83.29700889999998","Douglas-Cherokee Economic Authority, Inc.
534 E 1st North St
Morristown, TN 37814-4716
(423)587-4501 - 129
","04CH9999","000","Head Start","Head Start","Douglas-Cherokee Economic Authority, Inc.","","534 E 1st North St ","Morristown","TN","37814-4716","(865) 674-7727","3056 Roy Messer Hwy","White Pine","TN","37890-3510","56958"
